{
  "type": "FeatureCollection",
  "name": "Ornithoptera_priamus_presences",
  "features": [
    {
      "type": "Feature",
      "geometry": {
        "type": "Point",
        "coordinates": [
          146.14135,
          -6.38865
        ]
      },
      "properties": {
        "elevation_m": 311,
        "count": 6,
        "observer": "JM",
        "date": "2024-11-03",
        "species": "Ornithoptera priamus"
      }
    },
    {
      "type": "Feature",
      "geometry": {
        "type": "Point",
        "coordinates": [
          146.19212,
          -6.39071
        ]
      },
      "properties": {
        "elevation_m": 309,
        "count": 1,
        "observer": "SK",
        "date": "2024-06-17",
        "species": "Ornithoptera priamus"
      }
    },
    {
      "type": "Feature",
      "geometry": {
        "type": "Point",
        "coordinates": [
          146.08827,
          -6.41838
        ]
      },
      "properties": {
        "elevation_m": 293,
        "count": 4,
        "observer": "SK",
        "date": "2024-10-19",
        "species": "Ornithoptera priamus"
      }
    },
    {
      "type": "Feature",
      "geometry": {
        "type": "Point",
        "coordinates": [
          146.05884,
          -6.39777
        ]
      },
      "properties": {
        "elevation_m": 478,
        "count": 2,
        "observer": "LT",
        "date": "2024-08-09",
        "species": "Ornithoptera priamus"
      }
    },
    {
      "type": "Feature",
      "geometry": {
        "type": "Point",
        "coordinates": [
          146.23429,
          -6.27597
        ]
      },
      "properties": {
        "elevation_m": 301,
        "count": 1,
        "observer": "PW",
        "date": "2024-08-20",
        "species": "Ornithoptera priamus"
      }
    },
    {
      "type": "Feature",
      "geometry": {
        "type": "Point",
        "coordinates": [
          146.17265,
          -6.38136
        ]
      },
      "properties": {
        "elevation_m": 343,
        "count": 4,
        "observer": "JM",
        "date": "2024-09-03",
        "species": "Ornithoptera priamus"
      }
    },
    {
      "type": "Feature",
      "geometry": {
        "type": "Point",
        "coordinates": [
          146.04314,
          -6.4102
        ]
      },
      "properties": {
        "elevation_m": 202,
        "count": 5,
        "observer": "SK",
        "date": "2024-04-02",
        "species": "Ornithoptera priamus"
      }
    },
    {
      "type": "Feature",
      "geometry": {
        "type": "Point",
        "coordinates": [
          146.06911,
          -6.42556
        ]
      },
      "properties": {
        "elevation_m": 203,
        "count": 1,
        "observer": "SK",
        "date": "2024-04-13",
        "species": "Ornithoptera priamus"
      }
    },
    {
      "type": "Feature",
      "geometry": {
        "type": "Point",
        "coordinates": [
          146.13509,
          -6.31004
        ]
      },
      "properties": {
        "elevation_m": 269,
        "count": 2,
        "observer": "PW",
        "date": "2024-04-20",
        "species": "Ornithoptera priamus"
      }
    },
    {
      "type": "Feature",
      "geometry": {
        "type": "Point",
        "coordinates": [
          146.19332,
          -6.42088
        ]
      },
      "properties": {
        "elevation_m": 245,
        "count": 2,
        "observer": "SK",
        "date": "2024-10-13",
        "species": "Ornithoptera priamus"
      }
    },
    {
      "type": "Feature",
      "geometry": {
        "type": "Point",
        "coordinates": [
          146.13291,
          -6.26697
        ]
      },
      "properties": {
        "elevation_m": 298,
        "count": 3,
        "observer": "JM",
        "date": "2024-06-27",
        "species": "Ornithoptera priamus"
      }
    },
    {
      "type": "Feature",
      "geometry": {
        "type": "Point",
        "coordinates": [
          146.1109,
          -6.33735
        ]
      },
      "properties": {
        "elevation_m": 333,
        "count": 3,
        "observer": "JM",
        "date": "2024-06-19",
        "species": "Ornithoptera priamus"
      }
    },
    {
      "type": "Feature",
      "geometry": {
        "type": "Point",
        "coordinates": [
          146.1872,
          -6.41047
        ]
      },
      "properties": {
        "elevation_m": 275,
        "count": 6,
        "observer": "LT",
        "date": "2024-05-09",
        "species": "Ornithoptera priamus"
      }
    },
    {
      "type": "Feature",
      "geometry": {
        "type": "Point",
        "coordinates": [
          146.10011,
          -6.32716
        ]
      },
      "properties": {
        "elevation_m": 421,
        "count": 5,
        "observer": "PW",
        "date": "2024-09-19",
        "species": "Ornithoptera priamus"
      }
    },
    {
      "type": "Feature",
      "geometry": {
        "type": "Point",
        "coordinates": [
          146.11594,
          -6.35921
        ]
      },
      "properties": {
        "elevation_m": 415,
        "count": 1,
        "observer": "JM",
        "date": "2024-04-05",
        "species": "Ornithoptera priamus"
      }
    },
    {
      "type": "Feature",
      "geometry": {
        "type": "Point",
        "coordinates": [
          146.14889,
          -6.44169
        ]
      },
      "properties": {
        "elevation_m": 218,
        "count": 4,
        "observer": "JM",
        "date": "2024-09-13",
        "species": "Ornithoptera priamus"
      }
    },
    {
      "type": "Feature",
      "geometry": {
        "type": "Point",
        "coordinates": [
          146.09446,
          -6.41184
        ]
      },
      "properties": {
        "elevation_m": 319,
        "count": 1,
        "observer": "JM",
        "date": "2024-11-25",
        "species": "Ornithoptera priamus"
      }
    },
    {
      "type": "Feature",
      "geometry": {
        "type": "Point",
        "coordinates": [
          146.22616,
          -6.38755
        ]
      },
      "properties": {
        "elevation_m": 433,
        "count": 1,
        "observer": "PW",
        "date": "2024-09-06",
        "species": "Ornithoptera priamus"
      }
    },
    {
      "type": "Feature",
      "geometry": {
        "type": "Point",
        "coordinates": [
          146.35369,
          -6.76734
        ]
      },
      "properties": {
        "elevation_m": 1233,
        "count": 2,
        "observer": "JM",
        "date": "2024-07-27",
        "species": "Ornithoptera priamus"
      }
    },
    {
      "type": "Feature",
      "geometry": {
        "type": "Point",
        "coordinates": [
          146.48151,
          -6.86283
        ]
      },
      "properties": {
        "elevation_m": 992,
        "count": 2,
        "observer": "PW",
        "date": "2024-05-18",
        "species": "Ornithoptera priamus"
      }
    },
    {
      "type": "Feature",
      "geometry": {
        "type": "Point",
        "coordinates": [
          146.67158,
          -6.84908
        ]
      },
      "properties": {
        "elevation_m": 1326,
        "count": 4,
        "observer": "JM",
        "date": "2024-04-12",
        "species": "Ornithoptera priamus"
      }
    },
    {
      "type": "Feature",
      "geometry": {
        "type": "Point",
        "coordinates": [
          146.47363,
          -6.72806
        ]
      },
      "properties": {
        "elevation_m": 954,
        "count": 3,
        "observer": "SK",
        "date": "2024-03-08",
        "species": "Ornithoptera priamus"
      }
    },
    {
      "type": "Feature",
      "geometry": {
        "type": "Point",
        "coordinates": [
          146.6422,
          -6.91085
        ]
      },
      "properties": {
        "elevation_m": 1298,
        "count": 1,
        "observer": "SK",
        "date": "2024-05-22",
        "species": "Ornithoptera priamus"
      }
    },
    {
      "type": "Feature",
      "geometry": {
        "type": "Point",
        "coordinates": [
          146.56139,
          -6.88489
        ]
      },
      "properties": {
        "elevation_m": 1179,
        "count": 3,
        "observer": "LT",
        "date": "2024-06-18",
        "species": "Ornithoptera priamus"
      }
    },
    {
      "type": "Feature",
      "geometry": {
        "type": "Point",
        "coordinates": [
          146.52354,
          -6.90176
        ]
      },
      "properties": {
        "elevation_m": 1115,
        "count": 3,
        "observer": "LT",
        "date": "2024-11-15",
        "species": "Ornithoptera priamus"
      }
    },
    {
      "type": "Feature",
      "geometry": {
        "type": "Point",
        "coordinates": [
          146.45127,
          -6.77898
        ]
      },
      "properties": {
        "elevation_m": 1223,
        "count": 3,
        "observer": "JM",
        "date": "2024-11-08",
        "species": "Ornithoptera priamus"
      }
    },
    {
      "type": "Feature",
      "geometry": {
        "type": "Point",
        "coordinates": [
          146.51286,
          -6.8138
        ]
      },
      "properties": {
        "elevation_m": 1136,
        "count": 1,
        "observer": "JM",
        "date": "2024-08-03",
        "species": "Ornithoptera priamus"
      }
    },
    {
      "type": "Feature",
      "geometry": {
        "type": "Point",
        "coordinates": [
          146.49647,
          -6.85829
        ]
      },
      "properties": {
        "elevation_m": 1139,
        "count": 4,
        "observer": "SK",
        "date": "2024-11-05",
        "species": "Ornithoptera priamus"
      }
    },
    {
      "type": "Feature",
      "geometry": {
        "type": "Point",
        "coordinates": [
          146.49586,
          -6.9324
        ]
      },
      "properties": {
        "elevation_m": 1050,
        "count": 4,
        "observer": "LT",
        "date": "2024-06-04",
        "species": "Ornithoptera priamus"
      }
    },
    {
      "type": "Feature",
      "geometry": {
        "type": "Point",
        "coordinates": [
          146.49593,
          -6.75773
        ]
      },
      "properties": {
        "elevation_m": 1241,
        "count": 4,
        "observer": "LT",
        "date": "2024-10-28",
        "species": "Ornithoptera priamus"
      }
    },
    {
      "type": "Feature",
      "geometry": {
        "type": "Point",
        "coordinates": [
          146.50627,
          -6.89898
        ]
      },
      "properties": {
        "elevation_m": 1217,
        "count": 4,
        "observer": "PW",
        "date": "2024-04-08",
        "species": "Ornithoptera priamus"
      }
    },
    {
      "type": "Feature",
      "geometry": {
        "type": "Point",
        "coordinates": [
          146.51683,
          -6.78331
        ]
      },
      "properties": {
        "elevation_m": 1323,
        "count": 2,
        "observer": "LT",
        "date": "2024-05-09",
        "species": "Ornithoptera priamus"
      }
    },
    {
      "type": "Feature",
      "geometry": {
        "type": "Point",
        "coordinates": [
          146.39697,
          -7.06193
        ]
      },
      "properties": {
        "elevation_m": 200,
        "count": 1,
        "observer": "JM",
        "date": "2024-03-21",
        "species": "Ornithoptera priamus"
      }
    },
    {
      "type": "Feature",
      "geometry": {
        "type": "Point",
        "coordinates": [
          146.79946,
          -7.01963
        ]
      },
      "properties": {
        "elevation_m": 1987,
        "count": 1,
        "observer": "SK",
        "date": "2024-05-14",
        "species": "Ornithoptera priamus"
      }
    },
    {
      "type": "Feature",
      "geometry": {
        "type": "Point",
        "coordinates": [
          146.41423,
          -6.33512
        ]
      },
      "properties": {
        "elevation_m": 852,
        "count": 1,
        "observer": "JM",
        "date": "2024-05-13",
        "species": "Ornithoptera priamus"
      }
    },
    {
      "type": "Feature",
      "geometry": {
        "type": "Point",
        "coordinates": [
          146.05162,
          -6.52946
        ]
      },
      "properties": {
        "elevation_m": 1903,
        "count": 1,
        "observer": "LT",
        "date": "2024-07-14",
        "species": "Ornithoptera priamus"
      }
    },
    {
      "type": "Feature",
      "geometry": {
        "type": "Point",
        "coordinates": [
          146.57244,
          -6.90356
        ]
      },
      "properties": {
        "elevation_m": 1616,
        "count": 1,
        "observer": "LT",
        "date": "2024-05-07",
        "species": "Ornithoptera priamus"
      }
    },
    {
      "type": "Feature",
      "geometry": {
        "type": "Point",
        "coordinates": [
          146.27253,
          -7.16558
        ]
      },
      "properties": {
        "elevation_m": 1208,
        "count": 1,
        "observer": "JM",
        "date": "2024-08-02",
        "species": "Ornithoptera priamus"
      }
    },
    {
      "type": "Feature",
      "geometry": {
        "type": "Point",
        "coordinates": [
          146.08761,
          -6.62447
        ]
      },
      "properties": {
        "elevation_m": 1888,
        "count": 1,
        "observer": "SK",
        "date": "2024-03-17",
        "species": "Ornithoptera priamus"
      }
    },
    {
      "type": "Feature",
      "geometry": {
        "type": "Point",
        "coordinates": [
          146.11008,
          -6.30441
        ]
      },
      "properties": {
        "elevation_m": 1240,
        "count": 1,
        "observer": "SK",
        "date": "2024-09-04",
        "species": "Ornithoptera priamus"
      }
    }
  ]
}