{"type": "FeatureCollection", "name": "occurrence_lab_EPSG4326", "crs": {"type": "name", "properties": {"name": "urn:ogc:def:crs:EPSG::4326"}}, "features": [{"type": "Feature", "geometry": {"type": "Point", "coordinates": [147.18805, -6.051637]}, "properties": {"site": "GBIF_5459819072", "gbifID": 5459819072, "scientificName": "Paradisaea guilielmi Cabanis, 1888", "species": "Paradisaea guilielmi", "year": 2024, "basisOfRecord": "HUMAN_OBSERVATION", "locality": "Emperoar BOP Lek Tree,Morobe Province, PG. (-6.052, 147.188) Em", "stateProvince": "Morobe", "elevation_m": 1183.0, "tree_cover_pct": 99.80000305175781, "rainfall_mm": 2946.0, "bio1": 21.429166793823242, "bio15": 40.78110885620117, "worldcover_class": 10, "worldcover_label": "Tree cover"}}, {"type": "Feature", "geometry": {"type": "Point", "coordinates": [147.18805, -6.051637]}, "properties": {"site": "GBIF_5576134480", "gbifID": 5576134480, "scientificName": "Paradisaea guilielmi Cabanis, 1888", "species": "Paradisaea guilielmi", "year": 2024, "basisOfRecord": "HUMAN_OBSERVATION", "locality": "Emperoar BOP Lek Tree,Morobe Province, PG. (-6.052, 147.188) Em", "stateProvince": "Morobe", "elevation_m": 1183.0, "tree_cover_pct": 99.80000305175781, "rainfall_mm": 2946.0, "bio1": 21.429166793823242, "bio15": 40.78110885620117, "worldcover_class": 10, "worldcover_label": "Tree cover"}}, {"type": "Feature", "geometry": {"type": "Point", "coordinates": [147.18925, -6.053763]}, "properties": {"site": "GBIF_5367725248", "gbifID": 5367725248, "scientificName": "Paradisaea guilielmi Cabanis, 1888", "species": "Paradisaea guilielmi", "year": 2024, "basisOfRecord": "HUMAN_OBSERVATION", "locality": "Wasu - Kabwum Road PG-Morobe (-6.0538,147.1893)", "stateProvince": "Morobe", "elevation_m": 1183.0, "tree_cover_pct": 99.80000305175781, "rainfall_mm": 2946.0, "bio1": 21.429166793823242, "bio15": 40.78110885620117, "worldcover_class": 10, "worldcover_label": "Tree cover"}}, {"type": "Feature", "geometry": {"type": "Point", "coordinates": [147.18925, -6.053763]}, "properties": {"site": "GBIF_5376833675", "gbifID": 5376833675, "scientificName": "Paradisaea guilielmi Cabanis, 1888", "species": "Paradisaea guilielmi", "year": 2024, "basisOfRecord": "HUMAN_OBSERVATION", "locality": "Wasu - Kabwum Road PG-Morobe (-6.0538,147.1893)", "stateProvince": "Morobe", "elevation_m": 1183.0, "tree_cover_pct": 99.80000305175781, "rainfall_mm": 2946.0, "bio1": 21.429166793823242, "bio15": 40.78110885620117, "worldcover_class": 10, "worldcover_label": "Tree cover"}}, {"type": "Feature", "geometry": {"type": "Point", "coordinates": [147.19206, -6.048604]}, "properties": {"site": "GBIF_5380471029", "gbifID": 5380471029, "scientificName": "Paradisaea guilielmi Cabanis, 1888", "species": "Paradisaea guilielmi", "year": 2024, "basisOfRecord": "HUMAN_OBSERVATION", "locality": "Wasu - Kabwum Road PG-Morobe (-6.0486,147.1921)", "stateProvince": "Morobe", "elevation_m": 1183.0, "tree_cover_pct": 99.01000213623047, "rainfall_mm": 3089.0, "bio1": 22.362499237060547, "bio15": 43.62090301513672, "worldcover_class": 10, "worldcover_label": "Tree cover"}}, {"type": "Feature", "geometry": {"type": "Point", "coordinates": [147.18925, -6.053763]}, "properties": {"site": "GBIF_5390997775", "gbifID": 5390997775, "scientificName": "Paradisaea guilielmi Cabanis, 1888", "species": "Paradisaea guilielmi", "year": 2024, "basisOfRecord": "HUMAN_OBSERVATION", "locality": "Wasu - Kabwum Road PG-Morobe (-6.0538,147.1893)", "stateProvince": "Morobe", "elevation_m": 1183.0, "tree_cover_pct": 99.80000305175781, "rainfall_mm": 2946.0, "bio1": 21.429166793823242, "bio15": 40.78110885620117, "worldcover_class": 10, "worldcover_label": "Tree cover"}}, {"type": "Feature", "geometry": {"type": "Point", "coordinates": [147.18925, -6.053763]}, "properties": {"site": "GBIF_5391865974", "gbifID": 5391865974, "scientificName": "Paradisaea guilielmi Cabanis, 1888", "species": "Paradisaea guilielmi", "year": 2024, "basisOfRecord": "HUMAN_OBSERVATION", "locality": "Wasu - Kabwum Road PG-Morobe (-6.0538,147.1893)", "stateProvince": "Morobe", "elevation_m": 1183.0, "tree_cover_pct": 99.80000305175781, "rainfall_mm": 2946.0, "bio1": 21.429166793823242, "bio15": 40.78110885620117, "worldcover_class": 10, "worldcover_label": "Tree cover"}}, {"type": "Feature", "geometry": {"type": "Point", "coordinates": [147.19206, -6.048604]}, "properties": {"site": "GBIF_5421288086", "gbifID": 5421288086, "scientificName": "Paradisaea guilielmi Cabanis, 1888", "species": "Paradisaea guilielmi", "year": 2024, "basisOfRecord": "HUMAN_OBSERVATION", "locality": "Wasu - Kabwum Road PG-Morobe (-6.0486,147.1921)", "stateProvince": "Morobe", "elevation_m": 1183.0, "tree_cover_pct": 99.01000213623047, "rainfall_mm": 3089.0, "bio1": 22.362499237060547, "bio15": 43.62090301513672, "worldcover_class": 10, "worldcover_label": "Tree cover"}}, {"type": "Feature", "geometry": {"type": "Point", "coordinates": [147.18925, -6.053763]}, "properties": {"site": "GBIF_5427100220", "gbifID": 5427100220, "scientificName": "Paradisaea guilielmi Cabanis, 1888", "species": "Paradisaea guilielmi", "year": 2024, "basisOfRecord": "HUMAN_OBSERVATION", "locality": "Wasu - Kabwum Road PG-Morobe (-6.0538,147.1893)", "stateProvince": "Morobe", "elevation_m": 1183.0, "tree_cover_pct": 99.80000305175781, "rainfall_mm": 2946.0, "bio1": 21.429166793823242, "bio15": 40.78110885620117, "worldcover_class": 10, "worldcover_label": "Tree cover"}}, {"type": "Feature", "geometry": {"type": "Point", "coordinates": [147.18936, -6.053645]}, "properties": {"site": "GBIF_5428343705", "gbifID": 5428343705, "scientificName": "Paradisaea guilielmi Cabanis, 1888", "species": "Paradisaea guilielmi", "year": 2024, "basisOfRecord": "HUMAN_OBSERVATION", "locality": "Wasu - Kabwum Road PG-Morobe (-6.0536,147.1894)", "stateProvince": "Morobe", "elevation_m": 1183.0, "tree_cover_pct": 99.80000305175781, "rainfall_mm": 2946.0, "bio1": 21.429166793823242, "bio15": 40.78110885620117, "worldcover_class": 10, "worldcover_label": "Tree cover"}}, {"type": "Feature", "geometry": {"type": "Point", "coordinates": [147.19206, -6.048604]}, "properties": {"site": "GBIF_5432469564", "gbifID": 5432469564, "scientificName": "Paradisaea guilielmi Cabanis, 1888", "species": "Paradisaea guilielmi", "year": 2024, "basisOfRecord": "HUMAN_OBSERVATION", "locality": "Wasu - Kabwum Road PG-Morobe (-6.0486,147.1921)", "stateProvince": "Morobe", "elevation_m": 1183.0, "tree_cover_pct": 99.01000213623047, "rainfall_mm": 3089.0, "bio1": 22.362499237060547, "bio15": 43.62090301513672, "worldcover_class": 10, "worldcover_label": "Tree cover"}}, {"type": "Feature", "geometry": {"type": "Point", "coordinates": [147.18925, -6.053763]}, "properties": {"site": "GBIF_5460515484", "gbifID": 5460515484, "scientificName": "Paradisaea guilielmi Cabanis, 1888", "species": "Paradisaea guilielmi", "year": 2024, "basisOfRecord": "HUMAN_OBSERVATION", "locality": "Wasu - Kabwum Road PG-Morobe (-6.0538,147.1893)", "stateProvince": "Morobe", "elevation_m": 1183.0, "tree_cover_pct": 99.80000305175781, "rainfall_mm": 2946.0, "bio1": 21.429166793823242, "bio15": 40.78110885620117, "worldcover_class": 10, "worldcover_label": "Tree cover"}}, {"type": "Feature", "geometry": {"type": "Point", "coordinates": [147.19206, -6.048604]}, "properties": {"site": "GBIF_5622959783", "gbifID": 5622959783, "scientificName": "Paradisaea guilielmi Cabanis, 1888", "species": "Paradisaea guilielmi", "year": 2024, "basisOfRecord": "HUMAN_OBSERVATION", "locality": "Wasu - Kabwum Road PG-Morobe (-6.0486,147.1921)", "stateProvince": "Morobe", "elevation_m": 1183.0, "tree_cover_pct": 99.01000213623047, "rainfall_mm": 3089.0, "bio1": 22.362499237060547, "bio15": 43.62090301513672, "worldcover_class": 10, "worldcover_label": "Tree cover"}}, {"type": "Feature", "geometry": {"type": "Point", "coordinates": [147.18925, -6.053763]}, "properties": {"site": "GBIF_5653662321", "gbifID": 5653662321, "scientificName": "Paradisaea guilielmi Cabanis, 1888", "species": "Paradisaea guilielmi", "year": 2024, "basisOfRecord": "HUMAN_OBSERVATION", "locality": "Wasu - Kabwum Road PG-Morobe (-6.0538,147.1893)", "stateProvince": "Morobe", "elevation_m": 1183.0, "tree_cover_pct": 99.80000305175781, "rainfall_mm": 2946.0, "bio1": 21.429166793823242, "bio15": 40.78110885620117, "worldcover_class": 10, "worldcover_label": "Tree cover"}}, {"type": "Feature", "geometry": {"type": "Point", "coordinates": [147.18925, -6.053763]}, "properties": {"site": "GBIF_5696809272", "gbifID": 5696809272, "scientificName": "Paradisaea guilielmi Cabanis, 1888", "species": "Paradisaea guilielmi", "year": 2024, "basisOfRecord": "HUMAN_OBSERVATION", "locality": "Wasu - Kabwum Road PG-Morobe (-6.0538,147.1893)", "stateProvince": "Morobe", "elevation_m": 1183.0, "tree_cover_pct": 99.80000305175781, "rainfall_mm": 2946.0, "bio1": 21.429166793823242, "bio15": 40.78110885620117, "worldcover_class": 10, "worldcover_label": "Tree cover"}}, {"type": "Feature", "geometry": {"type": "Point", "coordinates": [147.1817, -6.0719]}, "properties": {"site": "GBIF_5151724383", "gbifID": 5151724383, "scientificName": "Paradisaea guilielmi Cabanis, 1888", "species": "Paradisaea guilielmi", "year": 2024, "basisOfRecord": "HUMAN_OBSERVATION", "locality": "Wasu Rural LLG (near  Satop), Tawae-Siassi District, Morobe Province", "stateProvince": null, "elevation_m": 1183.0, "tree_cover_pct": 99.69999694824219, "rainfall_mm": 2804.0, "bio1": 20.254167556762695, "bio15": 41.24840545654297, "worldcover_class": 10, "worldcover_label": "Tree cover"}}, {"type": "Feature", "geometry": {"type": "Point", "coordinates": [147.1817, -6.0719]}, "properties": {"site": "GBIF_5151734382", "gbifID": 5151734382, "scientificName": "Paradisaea guilielmi Cabanis, 1888", "species": "Paradisaea guilielmi", "year": 2024, "basisOfRecord": "HUMAN_OBSERVATION", "locality": "Wasu Rural LLG (near  Satop), Tawae-Siassi District, Morobe Province", "stateProvince": null, "elevation_m": 1183.0, "tree_cover_pct": 99.69999694824219, "rainfall_mm": 2804.0, "bio1": 20.254167556762695, "bio15": 41.24840545654297, "worldcover_class": 10, "worldcover_label": "Tree cover"}}, {"type": "Feature", "geometry": {"type": "Point", "coordinates": [147.1817, -6.0719]}, "properties": {"site": "GBIF_5151741387", "gbifID": 5151741387, "scientificName": "Paradisaea guilielmi Cabanis, 1888", "species": "Paradisaea guilielmi", "year": 2024, "basisOfRecord": "HUMAN_OBSERVATION", "locality": "Wasu Rural LLG (near  Satop), Tawae-Siassi District, Morobe Province", "stateProvince": null, "elevation_m": 1183.0, "tree_cover_pct": 99.69999694824219, "rainfall_mm": 2804.0, "bio1": 20.254167556762695, "bio15": 41.24840545654297, "worldcover_class": 10, "worldcover_label": "Tree cover"}}, {"type": "Feature", "geometry": {"type": "Point", "coordinates": [147.1817, -6.0719]}, "properties": {"site": "GBIF_5151748390", "gbifID": 5151748390, "scientificName": "Paradisaea guilielmi Cabanis, 1888", "species": "Paradisaea guilielmi", "year": 2024, "basisOfRecord": "HUMAN_OBSERVATION", "locality": "Wasu Rural LLG (near  Satop), Tawae-Siassi District, Morobe Province", "stateProvince": null, "elevation_m": 1183.0, "tree_cover_pct": 99.69999694824219, "rainfall_mm": 2804.0, "bio1": 20.254167556762695, "bio15": 41.24840545654297, "worldcover_class": 10, "worldcover_label": "Tree cover"}}, {"type": "Feature", "geometry": {"type": "Point", "coordinates": [147.1981, -6.09272]}, "properties": {"site": "GBIF_5301691751", "gbifID": 5301691751, "scientificName": "Paradisaea guilielmi Cabanis, 1888", "species": "Paradisaea guilielmi", "year": 2024, "basisOfRecord": "HUMAN_OBSERVATION", "locality": "Huon Birding Camp (1775 m)", "stateProvince": "Morobe", "elevation_m": 1813.0, "tree_cover_pct": 98.5199966430664, "rainfall_mm": 2673.0, "bio1": 18.15416717529297, "bio15": 38.232601165771484, "worldcover_class": 10, "worldcover_label": "Tree cover"}}, {"type": "Feature", "geometry": {"type": "Point", "coordinates": [147.1981, -6.09272]}, "properties": {"site": "GBIF_5314583702", "gbifID": 5314583702, "scientificName": "Paradisaea guilielmi Cabanis, 1888", "species": "Paradisaea guilielmi", "year": 2024, "basisOfRecord": "HUMAN_OBSERVATION", "locality": "Huon Birding Camp (1775 m)", "stateProvince": "Morobe", "elevation_m": 1813.0, "tree_cover_pct": 98.5199966430664, "rainfall_mm": 2673.0, "bio1": 18.15416717529297, "bio15": 38.232601165771484, "worldcover_class": 10, "worldcover_label": "Tree cover"}}, {"type": "Feature", "geometry": {"type": "Point", "coordinates": [147.1981, -6.09272]}, "properties": {"site": "GBIF_5324113970", "gbifID": 5324113970, "scientificName": "Paradisaea guilielmi Cabanis, 1888", "species": "Paradisaea guilielmi", "year": 2024, "basisOfRecord": "HUMAN_OBSERVATION", "locality": "Huon Birding Camp (1775 m)", "stateProvince": "Morobe", "elevation_m": 1813.0, "tree_cover_pct": 98.5199966430664, "rainfall_mm": 2673.0, "bio1": 18.15416717529297, "bio15": 38.232601165771484, "worldcover_class": 10, "worldcover_label": "Tree cover"}}, {"type": "Feature", "geometry": {"type": "Point", "coordinates": [147.19818, -6.09301]}, "properties": {"site": "GBIF_5325304552", "gbifID": 5325304552, "scientificName": "Paradisaea guilielmi Cabanis, 1888", "species": "Paradisaea guilielmi", "year": 2024, "basisOfRecord": "HUMAN_OBSERVATION", "locality": "Huon Birding Camp", "stateProvince": "Morobe", "elevation_m": 1813.0, "tree_cover_pct": 98.5199966430664, "rainfall_mm": 2673.0, "bio1": 18.15416717529297, "bio15": 38.232601165771484, "worldcover_class": 10, "worldcover_label": "Tree cover"}}, {"type": "Feature", "geometry": {"type": "Point", "coordinates": [147.1981, -6.09272]}, "properties": {"site": "GBIF_5348110994", "gbifID": 5348110994, "scientificName": "Paradisaea guilielmi Cabanis, 1888", "species": "Paradisaea guilielmi", "year": 2024, "basisOfRecord": "HUMAN_OBSERVATION", "locality": "Huon Birding Camp (1775 m)", "stateProvince": "Morobe", "elevation_m": 1813.0, "tree_cover_pct": 98.5199966430664, "rainfall_mm": 2673.0, "bio1": 18.15416717529297, "bio15": 38.232601165771484, "worldcover_class": 10, "worldcover_label": "Tree cover"}}, {"type": "Feature", "geometry": {"type": "Point", "coordinates": [147.1981, -6.09272]}, "properties": {"site": "GBIF_5370165291", "gbifID": 5370165291, "scientificName": "Paradisaea guilielmi Cabanis, 1888", "species": "Paradisaea guilielmi", "year": 2024, "basisOfRecord": "HUMAN_OBSERVATION", "locality": "Huon Birding Camp (1775 m)", "stateProvince": "Morobe", "elevation_m": 1813.0, "tree_cover_pct": 98.5199966430664, "rainfall_mm": 2673.0, "bio1": 18.15416717529297, "bio15": 38.232601165771484, "worldcover_class": 10, "worldcover_label": "Tree cover"}}, {"type": "Feature", "geometry": {"type": "Point", "coordinates": [147.19818, -6.09301]}, "properties": {"site": "GBIF_5388681190", "gbifID": 5388681190, "scientificName": "Paradisaea guilielmi Cabanis, 1888", "species": "Paradisaea guilielmi", "year": 2024, "basisOfRecord": "HUMAN_OBSERVATION", "locality": "Huon Birding Camp", "stateProvince": "Morobe", "elevation_m": 1813.0, "tree_cover_pct": 98.5199966430664, "rainfall_mm": 2673.0, "bio1": 18.15416717529297, "bio15": 38.232601165771484, "worldcover_class": 10, "worldcover_label": "Tree cover"}}, {"type": "Feature", "geometry": {"type": "Point", "coordinates": [147.1981, -6.09272]}, "properties": {"site": "GBIF_5482690977", "gbifID": 5482690977, "scientificName": "Paradisaea guilielmi Cabanis, 1888", "species": "Paradisaea guilielmi", "year": 2024, "basisOfRecord": "HUMAN_OBSERVATION", "locality": "Huon Birding Camp (1775 m)", "stateProvince": "Morobe", "elevation_m": 1813.0, "tree_cover_pct": 98.5199966430664, "rainfall_mm": 2673.0, "bio1": 18.15416717529297, "bio15": 38.232601165771484, "worldcover_class": 10, "worldcover_label": "Tree cover"}}, {"type": "Feature", "geometry": {"type": "Point", "coordinates": [147.1981, -6.09272]}, "properties": {"site": "GBIF_5528833465", "gbifID": 5528833465, "scientificName": "Paradisaea guilielmi Cabanis, 1888", "species": "Paradisaea guilielmi", "year": 2024, "basisOfRecord": "HUMAN_OBSERVATION", "locality": "Huon Birding Camp (1775 m)", "stateProvince": "Morobe", "elevation_m": 1813.0, "tree_cover_pct": 98.5199966430664, "rainfall_mm": 2673.0, "bio1": 18.15416717529297, "bio15": 38.232601165771484, "worldcover_class": 10, "worldcover_label": "Tree cover"}}, {"type": "Feature", "geometry": {"type": "Point", "coordinates": [147.1981, -6.09272]}, "properties": {"site": "GBIF_5672252861", "gbifID": 5672252861, "scientificName": "Paradisaea guilielmi Cabanis, 1888", "species": "Paradisaea guilielmi", "year": 2024, "basisOfRecord": "HUMAN_OBSERVATION", "locality": "Huon Birding Camp (1775 m)", "stateProvince": "Morobe", "elevation_m": 1813.0, "tree_cover_pct": 98.5199966430664, "rainfall_mm": 2673.0, "bio1": 18.15416717529297, "bio15": 38.232601165771484, "worldcover_class": 10, "worldcover_label": "Tree cover"}}, {"type": "Feature", "geometry": {"type": "Point", "coordinates": [147.18832, -6.051736]}, "properties": {"site": "GBIF_4692142577", "gbifID": 4692142577, "scientificName": "Paradisaea guilielmi Cabanis, 1888", "species": "Paradisaea guilielmi", "year": 2023, "basisOfRecord": "HUMAN_OBSERVATION", "locality": "Auto selected -6.05174, 147.18832", "stateProvince": "Morobe", "elevation_m": 1183.0, "tree_cover_pct": 99.80000305175781, "rainfall_mm": 2946.0, "bio1": 21.429166793823242, "bio15": 40.78110885620117, "worldcover_class": 10, "worldcover_label": "Tree cover"}}, {"type": "Feature", "geometry": {"type": "Point", "coordinates": [147.18832, -6.051736]}, "properties": {"site": "GBIF_4708697831", "gbifID": 4708697831, "scientificName": "Paradisaea guilielmi Cabanis, 1888", "species": "Paradisaea guilielmi", "year": 2023, "basisOfRecord": "HUMAN_OBSERVATION", "locality": "Auto selected -6.05174, 147.18832", "stateProvince": "Morobe", "elevation_m": 1183.0, "tree_cover_pct": 99.80000305175781, "rainfall_mm": 2946.0, "bio1": 21.429166793823242, "bio15": 40.78110885620117, "worldcover_class": 10, "worldcover_label": "Tree cover"}}, {"type": "Feature", "geometry": {"type": "Point", "coordinates": [147.1981, -6.09272]}, "properties": {"site": "GBIF_4713007030", "gbifID": 4713007030, "scientificName": "Paradisaea guilielmi Cabanis, 1888", "species": "Paradisaea guilielmi", "year": 2023, "basisOfRecord": "HUMAN_OBSERVATION", "locality": "Huon Birding Camp (1775 m)", "stateProvince": "Morobe", "elevation_m": 1813.0, "tree_cover_pct": 98.5199966430664, "rainfall_mm": 2673.0, "bio1": 18.15416717529297, "bio15": 38.232601165771484, "worldcover_class": 10, "worldcover_label": "Tree cover"}}, {"type": "Feature", "geometry": {"type": "Point", "coordinates": [147.18832, -6.051736]}, "properties": {"site": "GBIF_5488336903", "gbifID": 5488336903, "scientificName": "Paradisaea guilielmi Cabanis, 1888", "species": "Paradisaea guilielmi", "year": 2023, "basisOfRecord": "HUMAN_OBSERVATION", "locality": "Auto selected -6.05174, 147.18832", "stateProvince": "Morobe", "elevation_m": 1183.0, "tree_cover_pct": 99.80000305175781, "rainfall_mm": 2946.0, "bio1": 21.429166793823242, "bio15": 40.78110885620117, "worldcover_class": 10, "worldcover_label": "Tree cover"}}, {"type": "Feature", "geometry": {"type": "Point", "coordinates": [147.19821, -6.029125]}, "properties": {"site": "GBIF_4187616811", "gbifID": 4187616811, "scientificName": "Paradisaea guilielmi Cabanis, 1888", "species": "Paradisaea guilielmi", "year": 2022, "basisOfRecord": "HUMAN_OBSERVATION", "locality": "Satop Village and above ", "stateProvince": "Morobe", "elevation_m": 508.0, "tree_cover_pct": 94.62000274658203, "rainfall_mm": 3405.0, "bio1": 23.741666793823242, "bio15": 47.41062927246094, "worldcover_class": 10, "worldcover_label": "Tree cover"}}, {"type": "Feature", "geometry": {"type": "Point", "coordinates": [147.19821, -6.029125]}, "properties": {"site": "GBIF_4199987020", "gbifID": 4199987020, "scientificName": "Paradisaea guilielmi Cabanis, 1888", "species": "Paradisaea guilielmi", "year": 2022, "basisOfRecord": "HUMAN_OBSERVATION", "locality": "Satop Village and above ", "stateProvince": "Morobe", "elevation_m": 508.0, "tree_cover_pct": 94.62000274658203, "rainfall_mm": 3405.0, "bio1": 23.741666793823242, "bio15": 47.41062927246094, "worldcover_class": 10, "worldcover_label": "Tree cover"}}, {"type": "Feature", "geometry": {"type": "Point", "coordinates": [147.19821, -6.029125]}, "properties": {"site": "GBIF_4235510992", "gbifID": 4235510992, "scientificName": "Paradisaea guilielmi Cabanis, 1888", "species": "Paradisaea guilielmi", "year": 2022, "basisOfRecord": "HUMAN_OBSERVATION", "locality": "Satop Village and above ", "stateProvince": "Morobe", "elevation_m": 508.0, "tree_cover_pct": 94.62000274658203, "rainfall_mm": 3405.0, "bio1": 23.741666793823242, "bio15": 47.41062927246094, "worldcover_class": 10, "worldcover_label": "Tree cover"}}, {"type": "Feature", "geometry": {"type": "Point", "coordinates": [147.19821, -6.029125]}, "properties": {"site": "GBIF_4244271479", "gbifID": 4244271479, "scientificName": "Paradisaea guilielmi Cabanis, 1888", "species": "Paradisaea guilielmi", "year": 2022, "basisOfRecord": "HUMAN_OBSERVATION", "locality": "Satop Village and above ", "stateProvince": "Morobe", "elevation_m": 508.0, "tree_cover_pct": 94.62000274658203, "rainfall_mm": 3405.0, "bio1": 23.741666793823242, "bio15": 47.41062927246094, "worldcover_class": 10, "worldcover_label": "Tree cover"}}, {"type": "Feature", "geometry": {"type": "Point", "coordinates": [147.19821, -6.029125]}, "properties": {"site": "GBIF_4373864946", "gbifID": 4373864946, "scientificName": "Paradisaea guilielmi Cabanis, 1888", "species": "Paradisaea guilielmi", "year": 2022, "basisOfRecord": "HUMAN_OBSERVATION", "locality": "Satop Village and above ", "stateProvince": "Morobe", "elevation_m": 508.0, "tree_cover_pct": 94.62000274658203, "rainfall_mm": 3405.0, "bio1": 23.741666793823242, "bio15": 47.41062927246094, "worldcover_class": 10, "worldcover_label": "Tree cover"}}, {"type": "Feature", "geometry": {"type": "Point", "coordinates": [147.19884, -6.115515]}, "properties": {"site": "GBIF_2693326436", "gbifID": 2693326436, "scientificName": "Paradisaea guilielmi Cabanis, 1888", "species": "Paradisaea guilielmi", "year": 2019, "basisOfRecord": "HUMAN_OBSERVATION", "locality": "Satop to Kabwum Road Overlook (1920 meters)", "stateProvince": "Morobe", "elevation_m": 1813.0, "tree_cover_pct": 98.43999481201172, "rainfall_mm": 2632.0, "bio1": 17.683332443237305, "bio15": 39.027610778808594, "worldcover_class": 30, "worldcover_label": "Grassland"}}, {"type": "Feature", "geometry": {"type": "Point", "coordinates": [147.19014, -6.061307]}, "properties": {"site": "GBIF_2699976505", "gbifID": 2699976505, "scientificName": "Paradisaea guilielmi Cabanis, 1888", "species": "Paradisaea guilielmi", "year": 2019, "basisOfRecord": "HUMAN_OBSERVATION", "locality": "Gapot to Satop Road, Morobe Province, PG (-6.061, 147.19)", "stateProvince": "Morobe", "elevation_m": 1183.0, "tree_cover_pct": 99.88999938964844, "rainfall_mm": 2877.0, "bio1": 20.820833206176758, "bio15": 39.842384338378906, "worldcover_class": 10, "worldcover_label": "Tree cover"}}, {"type": "Feature", "geometry": {"type": "Point", "coordinates": [147.19014, -6.061307]}, "properties": {"site": "GBIF_2703370520", "gbifID": 2703370520, "scientificName": "Paradisaea guilielmi Cabanis, 1888", "species": "Paradisaea guilielmi", "year": 2019, "basisOfRecord": "HUMAN_OBSERVATION", "locality": "Gapot to Satop Road, Morobe Province, PG (-6.061, 147.19)", "stateProvince": "Morobe", "elevation_m": 1183.0, "tree_cover_pct": 99.88999938964844, "rainfall_mm": 2877.0, "bio1": 20.820833206176758, "bio15": 39.842384338378906, "worldcover_class": 10, "worldcover_label": "Tree cover"}}, {"type": "Feature", "geometry": {"type": "Point", "coordinates": [147.1906, -6.051855]}, "properties": {"site": "GBIF_2705045554", "gbifID": 2705045554, "scientificName": "Paradisaea guilielmi Cabanis, 1888", "species": "Paradisaea guilielmi", "year": 2019, "basisOfRecord": "HUMAN_OBSERVATION", "locality": "Gapot to Satop Road, Morobe Province, PG (-6.052, 147.191)", "stateProvince": "Morobe", "elevation_m": 1183.0, "tree_cover_pct": 99.80000305175781, "rainfall_mm": 2946.0, "bio1": 21.429166793823242, "bio15": 40.78110885620117, "worldcover_class": 10, "worldcover_label": "Tree cover"}}, {"type": "Feature", "geometry": {"type": "Point", "coordinates": [147.19884, -6.115515]}, "properties": {"site": "GBIF_2755869698", "gbifID": 2755869698, "scientificName": "Paradisaea guilielmi Cabanis, 1888", "species": "Paradisaea guilielmi", "year": 2019, "basisOfRecord": "HUMAN_OBSERVATION", "locality": "Satop to Kabwum Road Overlook (1920 meters)", "stateProvince": "Morobe", "elevation_m": 1813.0, "tree_cover_pct": 98.43999481201172, "rainfall_mm": 2632.0, "bio1": 17.683332443237305, "bio15": 39.027610778808594, "worldcover_class": 30, "worldcover_label": "Grassland"}}, {"type": "Feature", "geometry": {"type": "Point", "coordinates": [147.19629, -6.036544]}, "properties": {"site": "GBIF_2763734675", "gbifID": 2763734675, "scientificName": "Paradisaea guilielmi Cabanis, 1888", "species": "Paradisaea guilielmi", "year": 2019, "basisOfRecord": "HUMAN_OBSERVATION", "locality": "Emperor BOP Lek", "stateProvince": "Morobe", "elevation_m": 508.0, "tree_cover_pct": 95.81000518798828, "rainfall_mm": 3261.0, "bio1": 23.058332443237305, "bio15": 46.96641540527344, "worldcover_class": 10, "worldcover_label": "Tree cover"}}, {"type": "Feature", "geometry": {"type": "Point", "coordinates": [147.1906, -6.051855]}, "properties": {"site": "GBIF_2770769379", "gbifID": 2770769379, "scientificName": "Paradisaea guilielmi Cabanis, 1888", "species": "Paradisaea guilielmi", "year": 2019, "basisOfRecord": "HUMAN_OBSERVATION", "locality": "Gapot to Satop Road, Morobe Province, PG (-6.052, 147.191)", "stateProvince": "Morobe", "elevation_m": 1183.0, "tree_cover_pct": 99.80000305175781, "rainfall_mm": 2946.0, "bio1": 21.429166793823242, "bio15": 40.78110885620117, "worldcover_class": 10, "worldcover_label": "Tree cover"}}, {"type": "Feature", "geometry": {"type": "Point", "coordinates": [147.19629, -6.036544]}, "properties": {"site": "GBIF_2788965434", "gbifID": 2788965434, "scientificName": "Paradisaea guilielmi Cabanis, 1888", "species": "Paradisaea guilielmi", "year": 2019, "basisOfRecord": "HUMAN_OBSERVATION", "locality": "Emperor BOP Lek", "stateProvince": "Morobe", "elevation_m": 508.0, "tree_cover_pct": 95.81000518798828, "rainfall_mm": 3261.0, "bio1": 23.058332443237305, "bio15": 46.96641540527344, "worldcover_class": 10, "worldcover_label": "Tree cover"}}, {"type": "Feature", "geometry": {"type": "Point", "coordinates": [147.1981, -6.09272]}, "properties": {"site": "GBIF_2725277081", "gbifID": 2725277081, "scientificName": "Paradisaea guilielmi Cabanis, 1888", "species": "Paradisaea guilielmi", "year": 2019, "basisOfRecord": "HUMAN_OBSERVATION", "locality": "Huon Birding Camp (1775 m)", "stateProvince": "Morobe", "elevation_m": 1813.0, "tree_cover_pct": 98.5199966430664, "rainfall_mm": 2673.0, "bio1": 18.15416717529297, "bio15": 38.232601165771484, "worldcover_class": 10, "worldcover_label": "Tree cover"}}, {"type": "Feature", "geometry": {"type": "Point", "coordinates": [147.19696, -6.094894]}, "properties": {"site": "GBIF_2763603050", "gbifID": 2763603050, "scientificName": "Paradisaea guilielmi Cabanis, 1888", "species": "Paradisaea guilielmi", "year": 2019, "basisOfRecord": "HUMAN_OBSERVATION", "locality": "Huon Birding above Satop", "stateProvince": "Morobe", "elevation_m": 1813.0, "tree_cover_pct": 98.5199966430664, "rainfall_mm": 2673.0, "bio1": 18.15416717529297, "bio15": 38.232601165771484, "worldcover_class": 10, "worldcover_label": "Tree cover"}}, {"type": "Feature", "geometry": {"type": "Point", "coordinates": [147.1981, -6.09272]}, "properties": {"site": "GBIF_2799918129", "gbifID": 2799918129, "scientificName": "Paradisaea guilielmi Cabanis, 1888", "species": "Paradisaea guilielmi", "year": 2019, "basisOfRecord": "HUMAN_OBSERVATION", "locality": "Huon Birding Camp (1775 m)", "stateProvince": "Morobe", "elevation_m": 1813.0, "tree_cover_pct": 98.5199966430664, "rainfall_mm": 2673.0, "bio1": 18.15416717529297, "bio15": 38.232601165771484, "worldcover_class": 10, "worldcover_label": "Tree cover"}}, {"type": "Feature", "geometry": {"type": "Point", "coordinates": [147.1981, -6.09272]}, "properties": {"site": "GBIF_3283502083", "gbifID": 3283502083, "scientificName": "Paradisaea guilielmi Cabanis, 1888", "species": "Paradisaea guilielmi", "year": 2019, "basisOfRecord": "HUMAN_OBSERVATION", "locality": "Huon Birding Camp (1775 m)", "stateProvince": "Morobe", "elevation_m": 1813.0, "tree_cover_pct": 98.5199966430664, "rainfall_mm": 2673.0, "bio1": 18.15416717529297, "bio15": 38.232601165771484, "worldcover_class": 10, "worldcover_label": "Tree cover"}}, {"type": "Feature", "geometry": {"type": "Point", "coordinates": [147.19714, -6.094975]}, "properties": {"site": "GBIF_2721022861", "gbifID": 2721022861, "scientificName": "Paradisaea guilielmi Cabanis, 1888", "species": "Paradisaea guilielmi", "year": 2019, "basisOfRecord": "HUMAN_OBSERVATION", "locality": "Satop to Kabwum Rd  (Huon Birding Camp area)", "stateProvince": "Morobe", "elevation_m": 1813.0, "tree_cover_pct": 98.5199966430664, "rainfall_mm": 2673.0, "bio1": 18.15416717529297, "bio15": 38.232601165771484, "worldcover_class": 10, "worldcover_label": "Tree cover"}}, {"type": "Feature", "geometry": {"type": "Point", "coordinates": [147.19722, -6.027997]}, "properties": {"site": "GBIF_2205468906", "gbifID": 2205468906, "scientificName": "Paradisaea guilielmi Cabanis, 1888", "species": "Paradisaea guilielmi", "year": 2018, "basisOfRecord": "HUMAN_OBSERVATION", "locality": "Gatop-below the mission school", "stateProvince": "Morobe", "elevation_m": 508.0, "tree_cover_pct": 94.62000274658203, "rainfall_mm": 3405.0, "bio1": 23.741666793823242, "bio15": 47.41062927246094, "worldcover_class": 10, "worldcover_label": "Tree cover"}}, {"type": "Feature", "geometry": {"type": "Point", "coordinates": [147.19722, -6.027997]}, "properties": {"site": "GBIF_2207285338", "gbifID": 2207285338, "scientificName": "Paradisaea guilielmi Cabanis, 1888", "species": "Paradisaea guilielmi", "year": 2018, "basisOfRecord": "HUMAN_OBSERVATION", "locality": "Gatop-below the mission school", "stateProvince": "Morobe", "elevation_m": 508.0, "tree_cover_pct": 94.62000274658203, "rainfall_mm": 3405.0, "bio1": 23.741666793823242, "bio15": 47.41062927246094, "worldcover_class": 10, "worldcover_label": "Tree cover"}}, {"type": "Feature", "geometry": {"type": "Point", "coordinates": [147.19821, -6.029125]}, "properties": {"site": "GBIF_3218875347", "gbifID": 3218875347, "scientificName": "Paradisaea guilielmi Cabanis, 1888", "species": "Paradisaea guilielmi", "year": 2018, "basisOfRecord": "HUMAN_OBSERVATION", "locality": "Satop Village and above ", "stateProvince": "Morobe", "elevation_m": 508.0, "tree_cover_pct": 94.62000274658203, "rainfall_mm": 3405.0, "bio1": 23.741666793823242, "bio15": 47.41062927246094, "worldcover_class": 10, "worldcover_label": "Tree cover"}}, {"type": "Feature", "geometry": {"type": "Point", "coordinates": [146.97903, -6.360827]}, "properties": {"site": "GBIF_2214857873", "gbifID": 2214857873, "scientificName": "Paradisaea guilielmi Cabanis, 1888", "species": "Paradisaea guilielmi", "year": 2018, "basisOfRecord": "HUMAN_OBSERVATION", "locality": "Towet Village", "stateProvince": "Morobe", "elevation_m": 1828.0, "tree_cover_pct": 89.05000305175781, "rainfall_mm": 2480.0, "bio1": 18.412500381469727, "bio15": 28.972116470336914, "worldcover_class": 30, "worldcover_label": "Grassland"}}, {"type": "Feature", "geometry": {"type": "Point", "coordinates": [146.97903, -6.360827]}, "properties": {"site": "GBIF_2227763044", "gbifID": 2227763044, "scientificName": "Paradisaea guilielmi Cabanis, 1888", "species": "Paradisaea guilielmi", "year": 2018, "basisOfRecord": "HUMAN_OBSERVATION", "locality": "Towet Village", "stateProvince": "Morobe", "elevation_m": 1828.0, "tree_cover_pct": 89.05000305175781, "rainfall_mm": 2480.0, "bio1": 18.412500381469727, "bio15": 28.972116470336914, "worldcover_class": 30, "worldcover_label": "Grassland"}}, {"type": "Feature", "geometry": {"type": "Point", "coordinates": [147.1986, -6.0035]}, "properties": {"site": "GBIF_3813656315", "gbifID": 3813656315, "scientificName": "Paradisaea guilielmi Cabanis, 1888", "species": "Paradisaea guilielmi", "year": 2017, "basisOfRecord": "HUMAN_OBSERVATION", "locality": "Morobe Province", "stateProvince": null, "elevation_m": 508.0, "tree_cover_pct": 99.73999786376953, "rainfall_mm": 2910.0, "bio1": 25.79166603088379, "bio15": 31.423730850219727, "worldcover_class": 10, "worldcover_label": "Tree cover"}}, {"type": "Feature", "geometry": {"type": "Point", "coordinates": [147.1953, -6.015869]}, "properties": {"site": "GBIF_1752003761", "gbifID": 1752003761, "scientificName": "Paradisaea guilielmi Cabanis, 1888", "species": "Paradisaea guilielmi", "year": 2016, "basisOfRecord": "HUMAN_OBSERVATION", "locality": "Gatop, Neng Hamlet, about 700m altitude above Wasu", "stateProvince": "Morobe", "elevation_m": 508.0, "tree_cover_pct": 99.69999694824219, "rainfall_mm": 2924.0, "bio1": 25.22916603088379, "bio15": 33.98624801635742, "worldcover_class": 10, "worldcover_label": "Tree cover"}}, {"type": "Feature", "geometry": {"type": "Point", "coordinates": [147.1953, -6.015869]}, "properties": {"site": "GBIF_1752006934", "gbifID": 1752006934, "scientificName": "Paradisaea guilielmi Cabanis, 1888", "species": "Paradisaea guilielmi", "year": 2016, "basisOfRecord": "HUMAN_OBSERVATION", "locality": "Gatop, Neng Hamlet, about 700m altitude above Wasu", "stateProvince": "Morobe", "elevation_m": 508.0, "tree_cover_pct": 99.69999694824219, "rainfall_mm": 2924.0, "bio1": 25.22916603088379, "bio15": 33.98624801635742, "worldcover_class": 10, "worldcover_label": "Tree cover"}}, {"type": "Feature", "geometry": {"type": "Point", "coordinates": [147.1953, -6.015869]}, "properties": {"site": "GBIF_1752008807", "gbifID": 1752008807, "scientificName": "Paradisaea guilielmi Cabanis, 1888", "species": "Paradisaea guilielmi", "year": 2016, "basisOfRecord": "HUMAN_OBSERVATION", "locality": "Gatop, Neng Hamlet, about 700m altitude above Wasu", "stateProvince": "Morobe", "elevation_m": 508.0, "tree_cover_pct": 99.69999694824219, "rainfall_mm": 2924.0, "bio1": 25.22916603088379, "bio15": 33.98624801635742, "worldcover_class": 10, "worldcover_label": "Tree cover"}}, {"type": "Feature", "geometry": {"type": "Point", "coordinates": [147.2141, -6.3535]}, "properties": {"site": "GBIF_2795467542", "gbifID": 2795467542, "scientificName": "Paradisaea guilielmi Cabanis, 1888", "species": "Paradisaea guilielmi", "year": 2014, "basisOfRecord": "HUMAN_OBSERVATION", "locality": "Huon Peninsula", "stateProvince": "Morobe", "elevation_m": 2664.0, "tree_cover_pct": 7.28000020980835, "rainfall_mm": 2546.0, "bio1": 13.574999809265137, "bio15": 36.3474235534668, "worldcover_class": 90, "worldcover_label": "Herbaceous wetland"}}, {"type": "Feature", "geometry": {"type": "Point", "coordinates": [147.2141, -6.3535]}, "properties": {"site": "GBIF_2799596812", "gbifID": 2799596812, "scientificName": "Paradisaea guilielmi Cabanis, 1888", "species": "Paradisaea guilielmi", "year": 2014, "basisOfRecord": "HUMAN_OBSERVATION", "locality": "Huon Peninsula", "stateProvince": "Morobe", "elevation_m": 2664.0, "tree_cover_pct": 7.28000020980835, "rainfall_mm": 2546.0, "bio1": 13.574999809265137, "bio15": 36.3474235534668, "worldcover_class": 90, "worldcover_label": "Herbaceous wetland"}}, {"type": "Feature", "geometry": {"type": "Point", "coordinates": [146.81706, -6.050148]}, "properties": {"site": "GBIF_5420649003", "gbifID": 5420649003, "scientificName": "Paradisaea guilielmi Cabanis, 1888", "species": "Paradisaea guilielmi", "year": 2014, "basisOfRecord": "HUMAN_OBSERVATION", "locality": "Gomdan Village", "stateProvince": "Morobe", "elevation_m": 1128.0, "tree_cover_pct": 98.5, "rainfall_mm": 2495.0, "bio1": 20.245832443237305, "bio15": 44.336238861083984, "worldcover_class": 30, "worldcover_label": "Grassland"}}, {"type": "Feature", "geometry": {"type": "Point", "coordinates": [146.82204, -6.046875]}, "properties": {"site": "GBIF_5701936463", "gbifID": 5701936463, "scientificName": "Paradisaea guilielmi Cabanis, 1888", "species": "Paradisaea guilielmi", "year": 2014, "basisOfRecord": "HUMAN_OBSERVATION", "locality": "Gomdan to Camp 12", "stateProvince": "Morobe", "elevation_m": 1128.0, "tree_cover_pct": 99.55000305175781, "rainfall_mm": 2472.0, "bio1": 19.40416717529297, "bio15": 43.87367248535156, "worldcover_class": 10, "worldcover_label": "Tree cover"}}, {"type": "Feature", "geometry": {"type": "Point", "coordinates": [146.81357, -6.070067]}, "properties": {"site": "GBIF_5400653850", "gbifID": 5400653850, "scientificName": "Paradisaea guilielmi Cabanis, 1888", "species": "Paradisaea guilielmi", "year": 2014, "basisOfRecord": "HUMAN_OBSERVATION", "locality": "Sapmanga to Gomdan", "stateProvince": "Morobe", "elevation_m": 1128.0, "tree_cover_pct": 89.42000579833984, "rainfall_mm": 2504.0, "bio1": 21.704166412353516, "bio15": 48.055580139160156, "worldcover_class": 10, "worldcover_label": "Tree cover"}}, {"type": "Feature", "geometry": {"type": "Point", "coordinates": [146.81706, -6.050148]}, "properties": {"site": "GBIF_5403948328", "gbifID": 5403948328, "scientificName": "Paradisaea guilielmi Cabanis, 1888", "species": "Paradisaea guilielmi", "year": 2014, "basisOfRecord": "HUMAN_OBSERVATION", "locality": "Gomdan Village", "stateProvince": "Morobe", "elevation_m": 1128.0, "tree_cover_pct": 98.5, "rainfall_mm": 2495.0, "bio1": 20.245832443237305, "bio15": 44.336238861083984, "worldcover_class": 30, "worldcover_label": "Grassland"}}, {"type": "Feature", "geometry": {"type": "Point", "coordinates": [146.82204, -6.046875]}, "properties": {"site": "GBIF_5430927912", "gbifID": 5430927912, "scientificName": "Paradisaea guilielmi Cabanis, 1888", "species": "Paradisaea guilielmi", "year": 2014, "basisOfRecord": "HUMAN_OBSERVATION", "locality": "Gomdan to Camp 12", "stateProvince": "Morobe", "elevation_m": 1128.0, "tree_cover_pct": 99.55000305175781, "rainfall_mm": 2472.0, "bio1": 19.40416717529297, "bio15": 43.87367248535156, "worldcover_class": 10, "worldcover_label": "Tree cover"}}, {"type": "Feature", "geometry": {"type": "Point", "coordinates": [146.81189, -6.075717]}, "properties": {"site": "GBIF_5704243778", "gbifID": 5704243778, "scientificName": "Paradisaea guilielmi Cabanis, 1888", "species": "Paradisaea guilielmi", "year": 2014, "basisOfRecord": "HUMAN_OBSERVATION", "locality": "Sapmanga Village", "stateProvince": "Morobe", "elevation_m": 1128.0, "tree_cover_pct": 85.0999984741211, "rainfall_mm": 2491.0, "bio1": 21.47916603088379, "bio15": 46.83504867553711, "worldcover_class": 10, "worldcover_label": "Tree cover"}}, {"type": "Feature", "geometry": {"type": "Point", "coordinates": [146.82301, -6.041489]}, "properties": {"site": "GBIF_834651265", "gbifID": 834651265, "scientificName": "Paradisaea guilielmi Cabanis, 1888", "species": "Paradisaea guilielmi", "year": 2012, "basisOfRecord": "HUMAN_OBSERVATION", "locality": "Sapmanga", "stateProvince": "Morobe", "elevation_m": 1731.0, "tree_cover_pct": 99.77999877929688, "rainfall_mm": 2393.0, "bio1": 17.6875, "bio15": 42.988834381103516, "worldcover_class": 10, "worldcover_label": "Tree cover"}}, {"type": "Feature", "geometry": {"type": "Point", "coordinates": [146.80687, -6.027896]}, "properties": {"site": "GBIF_834779452", "gbifID": 834779452, "scientificName": "Paradisaea guilielmi Cabanis, 1888", "species": "Paradisaea guilielmi", "year": 2012, "basisOfRecord": "HUMAN_OBSERVATION", "locality": "Gomdon", "stateProvince": "Morobe", "elevation_m": 1731.0, "tree_cover_pct": 99.04000091552734, "rainfall_mm": 2449.0, "bio1": 19.64583396911621, "bio15": 44.266841888427734, "worldcover_class": 10, "worldcover_label": "Tree cover"}}, {"type": "Feature", "geometry": {"type": "Point", "coordinates": [147.42513, -6.08926]}, "properties": {"site": "GBIF_4775138460", "gbifID": 4775138460, "scientificName": "Paradisaea guilielmi Cabanis, 1888", "species": "Paradisaea guilielmi", "year": 2012, "basisOfRecord": "HUMAN_OBSERVATION", "locality": "Gatop village (Huon)", "stateProvince": "Morobe", "elevation_m": 1251.0, "tree_cover_pct": 99.6500015258789, "rainfall_mm": 3110.0, "bio1": 21.995832443237305, "bio15": 35.64485168457031, "worldcover_class": 10, "worldcover_label": "Tree cover"}}, {"type": "Feature", "geometry": {"type": "Point", "coordinates": [146.49278, -6.143312]}, "properties": {"site": "GBIF_935251883", "gbifID": 935251883, "scientificName": "Paradisaea guilielmi Cabanis, 1888", "species": "Paradisaea guilielmi", "year": 2011, "basisOfRecord": "HUMAN_OBSERVATION", "locality": "Sapmanga", "stateProvince": "Morobe", "elevation_m": 1214.0, "tree_cover_pct": 93.08000183105469, "rainfall_mm": 2357.0, "bio1": 20.16666603088379, "bio15": 37.76653289794922, "worldcover_class": 10, "worldcover_label": "Tree cover"}}, {"type": "Feature", "geometry": {"type": "Point", "coordinates": [146.80687, -6.027896]}, "properties": {"site": "GBIF_594148888", "gbifID": 594148888, "scientificName": "Paradisaea guilielmi Cabanis, 1888", "species": "Paradisaea guilielmi", "year": 2011, "basisOfRecord": "HUMAN_OBSERVATION", "locality": "Gomdon", "stateProvince": "Morobe", "elevation_m": 1731.0, "tree_cover_pct": 99.04000091552734, "rainfall_mm": 2449.0, "bio1": 19.64583396911621, "bio15": 44.266841888427734, "worldcover_class": 10, "worldcover_label": "Tree cover"}}, {"type": "Feature", "geometry": {"type": "Point", "coordinates": [146.80687, -6.027896]}, "properties": {"site": "GBIF_594335993", "gbifID": 594335993, "scientificName": "Paradisaea guilielmi Cabanis, 1888", "species": "Paradisaea guilielmi", "year": 2011, "basisOfRecord": "HUMAN_OBSERVATION", "locality": "Gomdon", "stateProvince": "Morobe", "elevation_m": 1731.0, "tree_cover_pct": 99.04000091552734, "rainfall_mm": 2449.0, "bio1": 19.64583396911621, "bio15": 44.266841888427734, "worldcover_class": 10, "worldcover_label": "Tree cover"}}, {"type": "Feature", "geometry": {"type": "Point", "coordinates": [146.86768, -5.963454]}, "properties": {"site": "GBIF_594188678", "gbifID": 594188678, "scientificName": "Paradisaea guilielmi Cabanis, 1888", "species": "Paradisaea guilielmi", "year": 2011, "basisOfRecord": "HUMAN_OBSERVATION", "locality": "YUS 750 m", "stateProvince": "Morobe", "elevation_m": 1054.0, "tree_cover_pct": 100.0, "rainfall_mm": 2877.0, "bio1": 23.245832443237305, "bio15": 49.06375503540039, "worldcover_class": 10, "worldcover_label": "Tree cover"}}, {"type": "Feature", "geometry": {"type": "Point", "coordinates": [146.87267, -5.982883]}, "properties": {"site": "GBIF_594195837", "gbifID": 594195837, "scientificName": "Paradisaea guilielmi Cabanis, 1888", "species": "Paradisaea guilielmi", "year": 2011, "basisOfRecord": "HUMAN_OBSERVATION", "locality": "YUS 1090 m", "stateProvince": "Morobe", "elevation_m": 1054.0, "tree_cover_pct": 100.0, "rainfall_mm": 2891.0, "bio1": 22.325000762939453, "bio15": 46.30883026123047, "worldcover_class": 10, "worldcover_label": "Tree cover"}}, {"type": "Feature", "geometry": {"type": "Point", "coordinates": [146.86768, -5.963454]}, "properties": {"site": "GBIF_833900857", "gbifID": 833900857, "scientificName": "Paradisaea guilielmi Cabanis, 1888", "species": "Paradisaea guilielmi", "year": 2011, "basisOfRecord": "HUMAN_OBSERVATION", "locality": "YUS 750 m", "stateProvince": "Morobe", "elevation_m": 1054.0, "tree_cover_pct": 100.0, "rainfall_mm": 2877.0, "bio1": 23.245832443237305, "bio15": 49.06375503540039, "worldcover_class": 10, "worldcover_label": "Tree cover"}}, {"type": "Feature", "geometry": {"type": "Point", "coordinates": [146.87267, -5.982883]}, "properties": {"site": "GBIF_833918989", "gbifID": 833918989, "scientificName": "Paradisaea guilielmi Cabanis, 1888", "species": "Paradisaea guilielmi", "year": 2011, "basisOfRecord": "HUMAN_OBSERVATION", "locality": "YUS 1090 m", "stateProvince": "Morobe", "elevation_m": 1054.0, "tree_cover_pct": 100.0, "rainfall_mm": 2891.0, "bio1": 22.325000762939453, "bio15": 46.30883026123047, "worldcover_class": 10, "worldcover_label": "Tree cover"}}, {"type": "Feature", "geometry": {"type": "Point", "coordinates": [146.83698, -5.964408]}, "properties": {"site": "GBIF_592548949", "gbifID": 592548949, "scientificName": "Paradisaea guilielmi Cabanis, 1888", "species": "Paradisaea guilielmi", "year": 2010, "basisOfRecord": "HUMAN_OBSERVATION", "locality": "YUS 1360 m", "stateProvince": "Morobe", "elevation_m": 1054.0, "tree_cover_pct": 99.7699966430664, "rainfall_mm": 2832.0, "bio1": 22.22916603088379, "bio15": 46.24231719970703, "worldcover_class": 10, "worldcover_label": "Tree cover"}}, {"type": "Feature", "geometry": {"type": "Point", "coordinates": [146.82944, -5.93112]}, "properties": {"site": "GBIF_592624999", "gbifID": 592624999, "scientificName": "Paradisaea guilielmi Cabanis, 1888", "species": "Paradisaea guilielmi", "year": 2010, "basisOfRecord": "HUMAN_OBSERVATION", "locality": "YUS 610 m", "stateProvince": "Morobe", "elevation_m": 755.0, "tree_cover_pct": 100.0, "rainfall_mm": 2651.0, "bio1": 24.304166793823242, "bio15": 51.124053955078125, "worldcover_class": 10, "worldcover_label": "Tree cover"}}, {"type": "Feature", "geometry": {"type": "Point", "coordinates": [146.84395, -5.950729]}, "properties": {"site": "GBIF_592627787", "gbifID": 592627787, "scientificName": "Paradisaea guilielmi Cabanis, 1888", "species": "Paradisaea guilielmi", "year": 2010, "basisOfRecord": "HUMAN_OBSERVATION", "locality": "YUS 910 m", "stateProvince": "Morobe", "elevation_m": 470.0, "tree_cover_pct": 100.0, "rainfall_mm": 2816.0, "bio1": 23.762500762939453, "bio15": 49.407386779785156, "worldcover_class": 10, "worldcover_label": "Tree cover"}}, {"type": "Feature", "geometry": {"type": "Point", "coordinates": [146.84395, -5.950729]}, "properties": {"site": "GBIF_833833443", "gbifID": 833833443, "scientificName": "Paradisaea guilielmi Cabanis, 1888", "species": "Paradisaea guilielmi", "year": 2010, "basisOfRecord": "HUMAN_OBSERVATION", "locality": "YUS 910 m", "stateProvince": "Morobe", "elevation_m": 470.0, "tree_cover_pct": 100.0, "rainfall_mm": 2816.0, "bio1": 23.762500762939453, "bio15": 49.407386779785156, "worldcover_class": 10, "worldcover_label": "Tree cover"}}, {"type": "Feature", "geometry": {"type": "Point", "coordinates": [146.82944, -5.93112]}, "properties": {"site": "GBIF_833839508", "gbifID": 833839508, "scientificName": "Paradisaea guilielmi Cabanis, 1888", "species": "Paradisaea guilielmi", "year": 2010, "basisOfRecord": "HUMAN_OBSERVATION", "locality": "YUS 610 m", "stateProvince": "Morobe", "elevation_m": 755.0, "tree_cover_pct": 100.0, "rainfall_mm": 2651.0, "bio1": 24.304166793823242, "bio15": 51.124053955078125, "worldcover_class": 10, "worldcover_label": "Tree cover"}}, {"type": "Feature", "geometry": {"type": "Point", "coordinates": [146.83698, -5.964408]}, "properties": {"site": "GBIF_833847021", "gbifID": 833847021, "scientificName": "Paradisaea guilielmi Cabanis, 1888", "species": "Paradisaea guilielmi", "year": 2010, "basisOfRecord": "HUMAN_OBSERVATION", "locality": "YUS 1360 m", "stateProvince": "Morobe", "elevation_m": 1054.0, "tree_cover_pct": 99.7699966430664, "rainfall_mm": 2832.0, "bio1": 22.22916603088379, "bio15": 46.24231719970703, "worldcover_class": 10, "worldcover_label": "Tree cover"}}, {"type": "Feature", "geometry": {"type": "Point", "coordinates": [146.8596, -5.951588]}, "properties": {"site": "GBIF_592556860", "gbifID": 592556860, "scientificName": "Paradisaea guilielmi Cabanis, 1888", "species": "Paradisaea guilielmi", "year": 2010, "basisOfRecord": "HUMAN_OBSERVATION", "locality": "YUS 390 m", "stateProvince": "Morobe", "elevation_m": 470.0, "tree_cover_pct": 100.0, "rainfall_mm": 2692.0, "bio1": 24.47916603088379, "bio15": 48.77706527709961, "worldcover_class": 10, "worldcover_label": "Tree cover"}}, {"type": "Feature", "geometry": {"type": "Point", "coordinates": [146.8596, -5.951588]}, "properties": {"site": "GBIF_833835561", "gbifID": 833835561, "scientificName": "Paradisaea guilielmi Cabanis, 1888", "species": "Paradisaea guilielmi", "year": 2010, "basisOfRecord": "HUMAN_OBSERVATION", "locality": "YUS 390 m", "stateProvince": "Morobe", "elevation_m": 470.0, "tree_cover_pct": 100.0, "rainfall_mm": 2692.0, "bio1": 24.47916603088379, "bio15": 48.77706527709961, "worldcover_class": 10, "worldcover_label": "Tree cover"}}, {"type": "Feature", "geometry": {"type": "Point", "coordinates": [147.19821, -6.029125]}, "properties": {"site": "GBIF_2691774052", "gbifID": 2691774052, "scientificName": "Paradisaea guilielmi Cabanis, 1888", "species": "Paradisaea guilielmi", "year": 2010, "basisOfRecord": "HUMAN_OBSERVATION", "locality": "Satop Village and above ", "stateProvince": "Morobe", "elevation_m": 508.0, "tree_cover_pct": 94.62000274658203, "rainfall_mm": 3405.0, "bio1": 23.741666793823242, "bio15": 47.41062927246094, "worldcover_class": 10, "worldcover_label": "Tree cover"}}, {"type": "Feature", "geometry": {"type": "Point", "coordinates": [147.201011, -6.037492]}, "properties": {"site": "GBIF_1147069862", "gbifID": 1147069862, "scientificName": "Paradisaea guilielmi Cabanis, 1888", "species": "Paradisaea guilielmi", "year": 2007, "basisOfRecord": "MACHINE_OBSERVATION", "locality": "Huon Peninsula, near Gatop Village.", "stateProvince": "Morobe", "elevation_m": 508.0, "tree_cover_pct": 99.58999633789062, "rainfall_mm": 3235.0, "bio1": 23.09166717529297, "bio15": 47.19521713256836, "worldcover_class": 10, "worldcover_label": "Tree cover"}}, {"type": "Feature", "geometry": {"type": "Point", "coordinates": [147.201011, -6.037492]}, "properties": {"site": "GBIF_1147140480", "gbifID": 1147140480, "scientificName": "Paradisaea guilielmi Cabanis, 1888", "species": "Paradisaea guilielmi", "year": 2007, "basisOfRecord": "MACHINE_OBSERVATION", "locality": "Huon Peninsula, near Gatop Village.", "stateProvince": "Morobe", "elevation_m": 508.0, "tree_cover_pct": 99.58999633789062, "rainfall_mm": 3235.0, "bio1": 23.09166717529297, "bio15": 47.19521713256836, "worldcover_class": 10, "worldcover_label": "Tree cover"}}, {"type": "Feature", "geometry": {"type": "Point", "coordinates": [147.201011, -6.037492]}, "properties": {"site": "GBIF_1147176114", "gbifID": 1147176114, "scientificName": "Paradisaea guilielmi Cabanis, 1888", "species": "Paradisaea guilielmi", "year": 2007, "basisOfRecord": "MACHINE_OBSERVATION", "locality": "Huon Peninsula, near Gatop Village.", "stateProvince": "Morobe", "elevation_m": 508.0, "tree_cover_pct": 99.58999633789062, "rainfall_mm": 3235.0, "bio1": 23.09166717529297, "bio15": 47.19521713256836, "worldcover_class": 10, "worldcover_label": "Tree cover"}}, {"type": "Feature", "geometry": {"type": "Point", "coordinates": [147.201011, -6.037492]}, "properties": {"site": "GBIF_1147217409", "gbifID": 1147217409, "scientificName": "Paradisaea guilielmi Cabanis, 1888", "species": "Paradisaea guilielmi", "year": 2007, "basisOfRecord": "MACHINE_OBSERVATION", "locality": "Huon Peninsula, near Gatop Village.", "stateProvince": "Morobe", "elevation_m": 508.0, "tree_cover_pct": 99.58999633789062, "rainfall_mm": 3235.0, "bio1": 23.09166717529297, "bio15": 47.19521713256836, "worldcover_class": 10, "worldcover_label": "Tree cover"}}, {"type": "Feature", "geometry": {"type": "Point", "coordinates": [147.19868, -6.00344]}, "properties": {"site": "GBIF_5682770919", "gbifID": 5682770919, "scientificName": "Paradisaea guilielmi Cabanis, 1888", "species": "Paradisaea guilielmi", "year": 2007, "basisOfRecord": "HUMAN_OBSERVATION", "locality": "Emperor Bop lek below Gatop (approx. loc.)", "stateProvince": "Morobe", "elevation_m": 508.0, "tree_cover_pct": 99.73999786376953, "rainfall_mm": 2910.0, "bio1": 25.79166603088379, "bio15": 31.423730850219727, "worldcover_class": 10, "worldcover_label": "Tree cover"}}, {"type": "Feature", "geometry": {"type": "Point", "coordinates": [147.19868, -6.00344]}, "properties": {"site": "GBIF_5712399351", "gbifID": 5712399351, "scientificName": "Paradisaea guilielmi Cabanis, 1888", "species": "Paradisaea guilielmi", "year": 2007, "basisOfRecord": "HUMAN_OBSERVATION", "locality": "Emperor Bop lek below Gatop (approx. loc.)", "stateProvince": "Morobe", "elevation_m": 508.0, "tree_cover_pct": 99.73999786376953, "rainfall_mm": 2910.0, "bio1": 25.79166603088379, "bio15": 31.423730850219727, "worldcover_class": 10, "worldcover_label": "Tree cover"}}, {"type": "Feature", "geometry": {"type": "Point", "coordinates": [147.214, -6.3535]}, "properties": {"site": "GBIF_2726401348", "gbifID": 2726401348, "scientificName": "Paradisaea guilielmi Cabanis, 1888", "species": "Paradisaea guilielmi", "year": 2007, "basisOfRecord": "HUMAN_OBSERVATION", "locality": "Huon Peninsula", "stateProvince": "Morobe", "elevation_m": 2664.0, "tree_cover_pct": 7.28000020980835, "rainfall_mm": 2546.0, "bio1": 13.574999809265137, "bio15": 36.3474235534668, "worldcover_class": 90, "worldcover_label": "Herbaceous wetland"}}, {"type": "Feature", "geometry": {"type": "Point", "coordinates": [147.19821, -6.029125]}, "properties": {"site": "GBIF_2725462343", "gbifID": 2725462343, "scientificName": "Paradisaea guilielmi Cabanis, 1888", "species": "Paradisaea guilielmi", "year": 2005, "basisOfRecord": "HUMAN_OBSERVATION", "locality": "Satop Village and above ", "stateProvince": "Morobe", "elevation_m": 508.0, "tree_cover_pct": 94.62000274658203, "rainfall_mm": 3405.0, "bio1": 23.741666793823242, "bio15": 47.41062927246094, "worldcover_class": 10, "worldcover_label": "Tree cover"}}, {"type": "Feature", "geometry": {"type": "Point", "coordinates": [146.71892, -5.874639]}, "properties": {"site": "GBIF_4251321223", "gbifID": 4251321223, "scientificName": "Paradisaea guilielmi Cabanis, 1888", "species": "Paradisaea guilielmi", "year": 2004, "basisOfRecord": "HUMAN_OBSERVATION", "locality": "Surim Camp", "stateProvince": "Madang", "elevation_m": 497.0, "tree_cover_pct": 99.94999694824219, "rainfall_mm": 2782.0, "bio1": 22.258333206176758, "bio15": 47.73381423950195, "worldcover_class": 10, "worldcover_label": "Tree cover"}}, {"type": "Feature", "geometry": {"type": "Point", "coordinates": [146.71892, -5.874639]}, "properties": {"site": "GBIF_4279196814", "gbifID": 4279196814, "scientificName": "Paradisaea guilielmi Cabanis, 1888", "species": "Paradisaea guilielmi", "year": 2004, "basisOfRecord": "HUMAN_OBSERVATION", "locality": "Surim Camp", "stateProvince": "Madang", "elevation_m": 497.0, "tree_cover_pct": 99.94999694824219, "rainfall_mm": 2782.0, "bio1": 22.258333206176758, "bio15": 47.73381423950195, "worldcover_class": 10, "worldcover_label": "Tree cover"}}, {"type": "Feature", "geometry": {"type": "Point", "coordinates": [146.71892, -5.874639]}, "properties": {"site": "GBIF_4310877432", "gbifID": 4310877432, "scientificName": "Paradisaea guilielmi Cabanis, 1888", "species": "Paradisaea guilielmi", "year": 2004, "basisOfRecord": "HUMAN_OBSERVATION", "locality": "Surim Camp", "stateProvince": "Madang", "elevation_m": 497.0, "tree_cover_pct": 99.94999694824219, "rainfall_mm": 2782.0, "bio1": 22.258333206176758, "bio15": 47.73381423950195, "worldcover_class": 10, "worldcover_label": "Tree cover"}}, {"type": "Feature", "geometry": {"type": "Point", "coordinates": [146.71892, -5.874639]}, "properties": {"site": "GBIF_4376717369", "gbifID": 4376717369, "scientificName": "Paradisaea guilielmi Cabanis, 1888", "species": "Paradisaea guilielmi", "year": 2004, "basisOfRecord": "HUMAN_OBSERVATION", "locality": "Surim Camp", "stateProvince": "Madang", "elevation_m": 497.0, "tree_cover_pct": 99.94999694824219, "rainfall_mm": 2782.0, "bio1": 22.258333206176758, "bio15": 47.73381423950195, "worldcover_class": 10, "worldcover_label": "Tree cover"}}, {"type": "Feature", "geometry": {"type": "Point", "coordinates": [147.19302, -5.958278]}, "properties": {"site": "GBIF_1410549604", "gbifID": 1410549604, "scientificName": "Paradisaea guilielmi Cabanis, 1888", "species": "Paradisaea guilielmi", "year": 2004, "basisOfRecord": "HUMAN_OBSERVATION", "locality": "Wasu", "stateProvince": "Morobe", "elevation_m": null, "tree_cover_pct": null, "rainfall_mm": null, "bio1": null, "bio15": null, "worldcover_class": null, "worldcover_label": null}}, {"type": "Feature", "geometry": {"type": "Point", "coordinates": [146.783, -5.916666]}, "properties": {"site": "GBIF_4279647343", "gbifID": 4279647343, "scientificName": "Paradisaea guilielmi Cabanis, 1888", "species": "Paradisaea guilielmi", "year": 2003, "basisOfRecord": "HUMAN_OBSERVATION", "locality": "Yuwong", "stateProvince": "Morobe", "elevation_m": 533.0, "tree_cover_pct": 99.83999633789062, "rainfall_mm": 2684.0, "bio1": 23.795833587646484, "bio15": 52.31105041503906, "worldcover_class": 10, "worldcover_label": "Tree cover"}}, {"type": "Feature", "geometry": {"type": "Point", "coordinates": [146.783, -5.916666]}, "properties": {"site": "GBIF_4314716253", "gbifID": 4314716253, "scientificName": "Paradisaea guilielmi Cabanis, 1888", "species": "Paradisaea guilielmi", "year": 2003, "basisOfRecord": "HUMAN_OBSERVATION", "locality": "Yuwong", "stateProvince": "Morobe", "elevation_m": 533.0, "tree_cover_pct": 99.83999633789062, "rainfall_mm": 2684.0, "bio1": 23.795833587646484, "bio15": 52.31105041503906, "worldcover_class": 10, "worldcover_label": "Tree cover"}}, {"type": "Feature", "geometry": {"type": "Point", "coordinates": [146.75, -6.41667]}, "properties": {"site": "GBIF_5707236973", "gbifID": 5707236973, "scientificName": "Paradisaea guilielmi Cabanis, 1888", "species": "Paradisaea guilielmi", "year": 1999, "basisOfRecord": "HUMAN_OBSERVATION", "locality": "Kaim Forest 10' Cell", "stateProvince": "Morobe", "elevation_m": 1099.0, "tree_cover_pct": 91.33999633789062, "rainfall_mm": 2381.0, "bio1": 20.162500381469727, "bio15": 28.506452560424805, "worldcover_class": 10, "worldcover_label": "Tree cover"}}, {"type": "Feature", "geometry": {"type": "Point", "coordinates": [147.19028, -6.07723]}, "properties": {"site": "GBIF_2724966215", "gbifID": 2724966215, "scientificName": "Paradisaea guilielmi Cabanis, 1888", "species": "Paradisaea guilielmi", "year": 1998, "basisOfRecord": "HUMAN_OBSERVATION", "locality": "Satop", "stateProvince": "Morobe", "elevation_m": 1183.0, "tree_cover_pct": 97.08999633789062, "rainfall_mm": 2738.0, "bio1": 19.491666793823242, "bio15": 39.53579330444336, "worldcover_class": 10, "worldcover_label": "Tree cover"}}, {"type": "Feature", "geometry": {"type": "Point", "coordinates": [146.9915, -6.724152]}, "properties": {"site": "GBIF_1790043849", "gbifID": 1790043849, "scientificName": "Paradisaea guilielmi Cabanis, 1888", "species": "Paradisaea guilielmi", "year": 1997, "basisOfRecord": "HUMAN_OBSERVATION", "locality": "Lae", "stateProvince": "Morobe", "elevation_m": 15.0, "tree_cover_pct": 37.31999969482422, "rainfall_mm": 3951.0, "bio1": 26.5625, "bio15": 24.302783966064453, "worldcover_class": 30, "worldcover_label": "Grassland"}}, {"type": "Feature", "geometry": {"type": "Point", "coordinates": [146.99892, -6.612175]}, "properties": {"site": "GBIF_1788929174", "gbifID": 1788929174, "scientificName": "Paradisaea guilielmi Cabanis, 1888", "species": "Paradisaea guilielmi", "year": 1997, "basisOfRecord": "HUMAN_OBSERVATION", "locality": "Busu River Road", "stateProvince": "Morobe", "elevation_m": 268.0, "tree_cover_pct": 91.40999603271484, "rainfall_mm": 2936.0, "bio1": 25.75, "bio15": 12.394503593444824, "worldcover_class": 10, "worldcover_label": "Tree cover"}}, {"type": "Feature", "geometry": {"type": "Point", "coordinates": [147.02231, -6.60706]}, "properties": {"site": "GBIF_591434437", "gbifID": 591434437, "scientificName": "Paradisaea guilielmi Cabanis, 1888", "species": "Paradisaea guilielmi", "year": 1996, "basisOfRecord": "HUMAN_OBSERVATION", "locality": "Boana Rd, Lae PNG", "stateProvince": "Morobe", "elevation_m": 265.0, "tree_cover_pct": 97.08000183105469, "rainfall_mm": 2880.0, "bio1": 25.512500762939453, "bio15": 11.920149803161621, "worldcover_class": 10, "worldcover_label": "Tree cover"}}, {"type": "Feature", "geometry": {"type": "Point", "coordinates": [146.822, -6.432]}, "properties": {"site": "GBIF_2432413757", "gbifID": 2432413757, "scientificName": "Paradisaea guilielmi Cabanis, 1888", "species": "Paradisaea guilielmi", "year": 1996, "basisOfRecord": "HUMAN_OBSERVATION", "locality": "Boana, Morobe Province", "stateProvince": null, "elevation_m": 791.0, "tree_cover_pct": 46.34000015258789, "rainfall_mm": 2230.0, "bio1": 22.450000762939453, "bio15": 33.21041488647461, "worldcover_class": 30, "worldcover_label": "Grassland"}}, {"type": "Feature", "geometry": {"type": "Point", "coordinates": [146.727, -6.564]}, "properties": {"site": "GBIF_2719627400", "gbifID": 2719627400, "scientificName": "Paradisaea guilielmi Cabanis, 1888", "species": "Paradisaea guilielmi", "year": 1995, "basisOfRecord": "HUMAN_OBSERVATION", "locality": "Lae (Boana River rd and Nadzab airport)", "stateProvince": "Morobe", "elevation_m": 78.0, "tree_cover_pct": 1.159999966621399, "rainfall_mm": 2599.0, "bio1": 26.912500381469727, "bio15": 11.574701309204102, "worldcover_class": 30, "worldcover_label": "Grassland"}}, {"type": "Feature", "geometry": {"type": "Point", "coordinates": [146.80995, -6.606975]}, "properties": {"site": "GBIF_1411462471", "gbifID": 1411462471, "scientificName": "Paradisaea guilielmi Cabanis, 1888", "species": "Paradisaea guilielmi", "year": 1993, "basisOfRecord": "HUMAN_OBSERVATION", "locality": "Erap River Valley and Forest", "stateProvince": "Morobe", "elevation_m": 36.0, "tree_cover_pct": 91.8699951171875, "rainfall_mm": 2722.0, "bio1": 26.71666717529297, "bio15": 13.451526641845703, "worldcover_class": 10, "worldcover_label": "Tree cover"}}, {"type": "Feature", "geometry": {"type": "Point", "coordinates": [146.80995, -6.606975]}, "properties": {"site": "GBIF_1792473558", "gbifID": 1792473558, "scientificName": "Paradisaea guilielmi Cabanis, 1888", "species": "Paradisaea guilielmi", "year": 1993, "basisOfRecord": "HUMAN_OBSERVATION", "locality": "Erap River Valley and Forest", "stateProvince": "Morobe", "elevation_m": 36.0, "tree_cover_pct": 91.8699951171875, "rainfall_mm": 2722.0, "bio1": 26.71666717529297, "bio15": 13.451526641845703, "worldcover_class": 10, "worldcover_label": "Tree cover"}}, {"type": "Feature", "geometry": {"type": "Point", "coordinates": [146.75606, -6.442224]}, "properties": {"site": "GBIF_2718923376", "gbifID": 2718923376, "scientificName": "Paradisaea guilielmi Cabanis, 1888", "species": "Paradisaea guilielmi", "year": 1993, "basisOfRecord": "HUMAN_OBSERVATION", "locality": "Gain", "stateProvince": "Morobe", "elevation_m": 1099.0, "tree_cover_pct": 95.06999969482422, "rainfall_mm": 2297.0, "bio1": 22.612499237060547, "bio15": 28.40625762939453, "worldcover_class": 10, "worldcover_label": "Tree cover"}}, {"type": "Feature", "geometry": {"type": "Point", "coordinates": [146.75606, -6.442224]}, "properties": {"site": "GBIF_2792336843", "gbifID": 2792336843, "scientificName": "Paradisaea guilielmi Cabanis, 1888", "species": "Paradisaea guilielmi", "year": 1992, "basisOfRecord": "HUMAN_OBSERVATION", "locality": "Gain", "stateProvince": "Morobe", "elevation_m": 1099.0, "tree_cover_pct": 95.06999969482422, "rainfall_mm": 2297.0, "bio1": 22.612499237060547, "bio15": 28.40625762939453, "worldcover_class": 10, "worldcover_label": "Tree cover"}}, {"type": "Feature", "geometry": {"type": "Point", "coordinates": [147.19821, -6.029125]}, "properties": {"site": "GBIF_5646116334", "gbifID": 5646116334, "scientificName": "Paradisaea guilielmi Cabanis, 1888", "species": "Paradisaea guilielmi", "year": 1992, "basisOfRecord": "HUMAN_OBSERVATION", "locality": "Satop Village and above ", "stateProvince": "Morobe", "elevation_m": 508.0, "tree_cover_pct": 94.62000274658203, "rainfall_mm": 3405.0, "bio1": 23.741666793823242, "bio15": 47.41062927246094, "worldcover_class": 10, "worldcover_label": "Tree cover"}}, {"type": "Feature", "geometry": {"type": "Point", "coordinates": [147.19821, -6.029125]}, "properties": {"site": "GBIF_5667461284", "gbifID": 5667461284, "scientificName": "Paradisaea guilielmi Cabanis, 1888", "species": "Paradisaea guilielmi", "year": 1992, "basisOfRecord": "HUMAN_OBSERVATION", "locality": "Satop Village and above ", "stateProvince": "Morobe", "elevation_m": 508.0, "tree_cover_pct": 94.62000274658203, "rainfall_mm": 3405.0, "bio1": 23.741666793823242, "bio15": 47.41062927246094, "worldcover_class": 10, "worldcover_label": "Tree cover"}}, {"type": "Feature", "geometry": {"type": "Point", "coordinates": [147.19821, -6.029125]}, "properties": {"site": "GBIF_833219419", "gbifID": 833219419, "scientificName": "Paradisaea guilielmi Cabanis, 1888", "species": "Paradisaea guilielmi", "year": 1990, "basisOfRecord": "HUMAN_OBSERVATION", "locality": "Satop Village and above ", "stateProvince": "Morobe", "elevation_m": 508.0, "tree_cover_pct": 94.62000274658203, "rainfall_mm": 3405.0, "bio1": 23.741666793823242, "bio15": 47.41062927246094, "worldcover_class": 10, "worldcover_label": "Tree cover"}}, {"type": "Feature", "geometry": {"type": "Point", "coordinates": [147.19821, -6.029125]}, "properties": {"site": "GBIF_833229228", "gbifID": 833229228, "scientificName": "Paradisaea guilielmi Cabanis, 1888", "species": "Paradisaea guilielmi", "year": 1990, "basisOfRecord": "HUMAN_OBSERVATION", "locality": "Satop Village and above ", "stateProvince": "Morobe", "elevation_m": 508.0, "tree_cover_pct": 94.62000274658203, "rainfall_mm": 3405.0, "bio1": 23.741666793823242, "bio15": 47.41062927246094, "worldcover_class": 10, "worldcover_label": "Tree cover"}}, {"type": "Feature", "geometry": {"type": "Point", "coordinates": [147.19714, -6.094975]}, "properties": {"site": "GBIF_4755478705", "gbifID": 4755478705, "scientificName": "Paradisaea guilielmi Cabanis, 1888", "species": "Paradisaea guilielmi", "year": 1989, "basisOfRecord": "HUMAN_OBSERVATION", "locality": "Satop to Kabwum Rd  (Huon Birding Camp area)", "stateProvince": "Morobe", "elevation_m": 1813.0, "tree_cover_pct": 98.5199966430664, "rainfall_mm": 2673.0, "bio1": 18.15416717529297, "bio15": 38.232601165771484, "worldcover_class": 10, "worldcover_label": "Tree cover"}}, {"type": "Feature", "geometry": {"type": "Point", "coordinates": [147.19714, -6.094975]}, "properties": {"site": "GBIF_4845315957", "gbifID": 4845315957, "scientificName": "Paradisaea guilielmi Cabanis, 1888", "species": "Paradisaea guilielmi", "year": 1989, "basisOfRecord": "HUMAN_OBSERVATION", "locality": "Satop to Kabwum Rd  (Huon Birding Camp area)", "stateProvince": "Morobe", "elevation_m": 1813.0, "tree_cover_pct": 98.5199966430664, "rainfall_mm": 2673.0, "bio1": 18.15416717529297, "bio15": 38.232601165771484, "worldcover_class": 10, "worldcover_label": "Tree cover"}}, {"type": "Feature", "geometry": {"type": "Point", "coordinates": [146.80841, -6.443247]}, "properties": {"site": "GBIF_3253093285", "gbifID": 3253093285, "scientificName": "Paradisaea guilielmi Cabanis, 1888", "species": "Paradisaea guilielmi", "year": 1987, "basisOfRecord": "HUMAN_OBSERVATION", "locality": "Boana", "stateProvince": "Morobe", "elevation_m": 791.0, "tree_cover_pct": 92.94999694824219, "rainfall_mm": 2236.0, "bio1": 23.89583396911621, "bio15": 26.96686363220215, "worldcover_class": 10, "worldcover_label": "Tree cover"}}, {"type": "Feature", "geometry": {"type": "Point", "coordinates": [146.81969, -6.436709]}, "properties": {"site": "GBIF_3570323951", "gbifID": 3570323951, "scientificName": "Paradisaea guilielmi Cabanis, 1888", "species": "Paradisaea guilielmi", "year": 1987, "basisOfRecord": "HUMAN_OBSERVATION", "locality": "Boana Rd and Gain School", "stateProvince": "Morobe", "elevation_m": 791.0, "tree_cover_pct": 90.27000427246094, "rainfall_mm": 2274.0, "bio1": 22.829166412353516, "bio15": 31.660669326782227, "worldcover_class": 10, "worldcover_label": "Tree cover"}}, {"type": "Feature", "geometry": {"type": "Point", "coordinates": [146.80669, -6.44495]}, "properties": {"site": "GBIF_5713340110", "gbifID": 5713340110, "scientificName": "Paradisaea guilielmi Cabanis, 1888", "species": "Paradisaea guilielmi", "year": 1987, "basisOfRecord": "HUMAN_OBSERVATION", "locality": "Boana Rd", "stateProvince": "Morobe", "elevation_m": 791.0, "tree_cover_pct": 82.18000030517578, "rainfall_mm": 2253.0, "bio1": 23.59583282470703, "bio15": 28.72065544128418, "worldcover_class": 10, "worldcover_label": "Tree cover"}}, {"type": "Feature", "geometry": {"type": "Point", "coordinates": [147.18796, -6.060758]}, "properties": {"site": "GBIF_1193881816", "gbifID": 1193881816, "scientificName": "Paradisaea guilielmi Cabanis, 1888", "species": "Paradisaea guilielmi", "year": 1987, "basisOfRecord": "HUMAN_OBSERVATION", "locality": "Satop, Huon Peninsula", "stateProvince": "Morobe", "elevation_m": 1183.0, "tree_cover_pct": 99.88999938964844, "rainfall_mm": 2877.0, "bio1": 20.820833206176758, "bio15": 39.842384338378906, "worldcover_class": 10, "worldcover_label": "Tree cover"}}, {"type": "Feature", "geometry": {"type": "Point", "coordinates": [146.9915, -6.724152]}, "properties": {"site": "GBIF_2718709569", "gbifID": 2718709569, "scientificName": "Paradisaea guilielmi Cabanis, 1888", "species": "Paradisaea guilielmi", "year": 1986, "basisOfRecord": "HUMAN_OBSERVATION", "locality": "Lae", "stateProvince": "Morobe", "elevation_m": 15.0, "tree_cover_pct": 37.31999969482422, "rainfall_mm": 3951.0, "bio1": 26.5625, "bio15": 24.302783966064453, "worldcover_class": 30, "worldcover_label": "Grassland"}}, {"type": "Feature", "geometry": {"type": "Point", "coordinates": [147.19821, -6.029125]}, "properties": {"site": "GBIF_4350730403", "gbifID": 4350730403, "scientificName": "Paradisaea guilielmi Cabanis, 1888", "species": "Paradisaea guilielmi", "year": 1983, "basisOfRecord": "HUMAN_OBSERVATION", "locality": "Satop Village and above ", "stateProvince": "Morobe", "elevation_m": 508.0, "tree_cover_pct": 94.62000274658203, "rainfall_mm": 3405.0, "bio1": 23.741666793823242, "bio15": 47.41062927246094, "worldcover_class": 10, "worldcover_label": "Tree cover"}}, {"type": "Feature", "geometry": {"type": "Point", "coordinates": [147.333333, -6.166667]}, "properties": {"site": "GBIF_1147155959", "gbifID": 1147155959, "scientificName": "Paradisaea guilielmi Cabanis, 1888", "species": "Paradisaea guilielmi", "year": 1975, "basisOfRecord": "MACHINE_OBSERVATION", "locality": "Wasu; Bumbu", "stateProvince": "Morobe", "elevation_m": 1685.0, "tree_cover_pct": 93.6500015258789, "rainfall_mm": 2638.0, "bio1": 19.516666412353516, "bio15": 39.08808898925781, "worldcover_class": 30, "worldcover_label": "Grassland"}}, {"type": "Feature", "geometry": {"type": "Point", "coordinates": [147.297852, -6.351158]}, "properties": {"site": "GBIF_5083973157", "gbifID": 5083973157, "scientificName": "Paradisaea guilielmi Cabanis, 1888", "species": "Paradisaea guilielmi", "year": null, "basisOfRecord": "PRESERVED_SPECIMEN", "locality": "Huon Peninsula", "stateProvince": "Morobe Province", "elevation_m": 2509.0, "tree_cover_pct": 100.0, "rainfall_mm": 2565.0, "bio1": 13.266666412353516, "bio15": 36.816219329833984, "worldcover_class": 10, "worldcover_label": "Tree cover"}}, {"type": "Feature", "geometry": {"type": "Point", "coordinates": [147.766672, -6.483353]}, "properties": {"site": "GBIF_6061938425", "gbifID": 6061938425, "scientificName": "Paradisaea guilielmi Cabanis, 1888", "species": "Paradisaea guilielmi", "year": null, "basisOfRecord": "PRESERVED_SPECIMEN", "locality": "Sattelberg, p\u00e9ninsule Huon", "stateProvince": "Morobe", "elevation_m": 601.0, "tree_cover_pct": 97.01000213623047, "rainfall_mm": 2973.0, "bio1": 23.387500762939453, "bio15": 10.49031925201416, "worldcover_class": 10, "worldcover_label": "Tree cover"}}]}