{
"type": "FeatureCollection",
"name": "png_protected_areas",
"crs": { "type": "name", "properties": { "name": "urn:ogc:def:crs:OGC:1.3:CRS84" } },
"features": [
{ "type": "Feature", "properties": { "gml_id": "World_Database_Protected_Areas_Polygons.160", "gid": 160, "wdpaid": 4197.0, "wdpa_pid": "4197", "pa_def": null, "name": "Mt Susu", "orig_name": "Mt Susu", "desig": "Natural Reserve", "desig_eng": "Natural Reserve", "desig_type": "National", "iucn_cat": "Not Reported", "int_crit": null, "marine": false, "rep_m_area": 0.0, "gis_m_area": 0.0, "rep_area": 1.18, "gis_area": 1.19, "no_take": "Not Applicable", "no_tk_area": 0.0, "status": "Designated", "status_yr": null, "gov_type": "Governance by Government", "own_type": "State", "mang_auth": "State Land", "mang_plan": "Not Reported", "verif": null, "metadataid": null, "sub_loc": null, "parent_iso": null, "iso3": "PNG" }, "geometry": { "type": "Polygon", "coordinates": [ [ [ 146.62, -7.231 ], [ 146.614, -7.223 ], [ 146.615, -7.218 ], [ 146.624, -7.223 ], [ 146.62, -7.231 ] ] ] } },
{ "type": "Feature", "properties": { "gml_id": "World_Database_Protected_Areas_Polygons.163", "gid": 163, "wdpaid": 4201.0, "wdpa_pid": "4201", "pa_def": null, "name": "Baniara Island", "orig_name": "Baniara Island", "desig": "Protected Area", "desig_eng": "Protected Area", "desig_type": "National", "iucn_cat": "Not Reported", "int_crit": null, "marine": true, "rep_m_area": 0.0, "gis_m_area": 0.11, "rep_area": 2.0, "gis_area": 0.37, "no_take": "Not Reported", "no_tk_area": 0.0, "status": "Designated", "status_yr": 1975.0, "gov_type": "Governance by Indigenous Peoples and Local Communities", "own_type": "Communal", "mang_auth": "Not Reported", "mang_plan": "Not Reported", "verif": null, "metadataid": null, "sub_loc": null, "parent_iso": null, "iso3": "PNG" }, "geometry": { "type": "Polygon", "coordinates": [ [ [ 149.887, -9.77 ], [ 149.89, -9.776 ], [ 149.885, -9.778 ], [ 149.887, -9.77 ] ] ] } },
{ "type": "Feature", "properties": { "gml_id": "World_Database_Protected_Areas_Polygons.166", "gid": 166, "wdpaid": 4204.0, "wdpa_pid": "4204", "pa_def": null, "name": "Balek", "orig_name": "Balek", "desig": "Wildlife Sanctuary", "desig_eng": "Wildlife Sanctuary", "desig_type": "National", "iucn_cat": "Not Reported", "int_crit": null, "marine": false, "rep_m_area": 0.0, "gis_m_area": 0.0, "rep_area": 4.7, "gis_area": 5.78, "no_take": "Not Applicable", "no_tk_area": 0.0, "status": "Designated", "status_yr": 1977.0, "gov_type": "Governance by Indigenous Peoples and Local Communities", "own_type": "Communal", "mang_auth": "Not Reported", "mang_plan": "Not Reported", "verif": null, "metadataid": null, "sub_loc": null, "parent_iso": null, "iso3": "PNG" }, "geometry": { "type": "Polygon", "coordinates": [ [ [ 145.709, -5.34 ], [ 145.699, -5.327 ], [ 145.703, -5.313 ], [ 145.723, -5.312 ], [ 145.709, -5.34 ] ] ] } },
{ "type": "Feature", "properties": { "gml_id": "World_Database_Protected_Areas_Polygons.169", "gid": 169, "wdpaid": 9717.0, "wdpa_pid": "9717", "pa_def": null, "name": "Zo-oimaga", "orig_name": "Zo-oimaga", "desig": "Wildlife Management Area", "desig_eng": "Wildlife Management Area", "desig_type": "National", "iucn_cat": "Not Reported", "int_crit": null, "marine": false, "rep_m_area": 0.0, "gis_m_area": 0.0, "rep_area": 15.1, "gis_area": 14.83, "no_take": "Not Applicable", "no_tk_area": 0.0, "status": "Designated", "status_yr": 1981.0, "gov_type": "Governance by Indigenous Peoples and Local Communities", "own_type": "Communal", "mang_auth": "Not Reported", "mang_plan": "Not Reported", "verif": null, "metadataid": null, "sub_loc": null, "parent_iso": null, "iso3": "PNG" }, "geometry": { "type": "Polygon", "coordinates": [ [ [ 147.624, -9.726 ], [ 147.652, -9.736 ], [ 147.652, -9.752 ], [ 147.664, -9.756 ], [ 147.657, -9.779 ], [ 147.62, -9.748 ], [ 147.624, -9.726 ] ] ] } },
{ "type": "Feature", "properties": { "gml_id": "World_Database_Protected_Areas_Polygons.186", "gid": 186, "wdpaid": 71364.0, "wdpa_pid": "71364", "pa_def": null, "name": "Mt Wilhelm", "orig_name": "Mt Wilhelm", "desig": "National Park", "desig_eng": "National Park", "desig_type": "National", "iucn_cat": "Not Reported", "int_crit": null, "marine": false, "rep_m_area": 0.0, "gis_m_area": 0.0, "rep_area": 8.17, "gis_area": 8.15, "no_take": "Not Applicable", "no_tk_area": 0.0, "status": "Designated", "status_yr": 1990.0, "gov_type": "Governance by Indigenous Peoples and Local Communities", "own_type": "Communal", "mang_auth": "Not Reported", "mang_plan": "Not Reported", "verif": null, "metadataid": null, "sub_loc": null, "parent_iso": null, "iso3": "PNG" }, "geometry": { "type": "Polygon", "coordinates": [ [ [ 145.025, -5.781 ], [ 145.063, -5.788 ], [ 145.072, -5.807 ], [ 145.064, -5.815 ], [ 145.025, -5.781 ] ] ] } },
{ "type": "Feature", "properties": { "gml_id": "World_Database_Protected_Areas_Polygons.191", "gid": 191, "wdpaid": 316895.0, "wdpa_pid": "316895", "pa_def": null, "name": "Hombareta", "orig_name": "Hombareta", "desig": "Wildlife Management Area", "desig_eng": "Wildlife Management Area", "desig_type": "National", "iucn_cat": "Not Reported", "int_crit": null, "marine": false, "rep_m_area": 0.0, "gis_m_area": 0.0, "rep_area": 1.3, "gis_area": 1.38, "no_take": "Not Applicable", "no_tk_area": 0.0, "status": "Designated", "status_yr": 1997.0, "gov_type": "Governance by Indigenous Peoples and Local Communities", "own_type": "Communal", "mang_auth": "Not Reported", "mang_plan": "Not Reported", "verif": null, "metadataid": null, "sub_loc": null, "parent_iso": null, "iso3": "PNG" }, "geometry": { "type": "Polygon", "coordinates": [ [ [ 148.246, -8.678 ], [ 148.255, -8.69 ], [ 148.242, -8.69 ], [ 148.246, -8.678 ] ] ] } },
{ "type": "Feature", "properties": { "gml_id": "World_Database_Protected_Areas_Polygons.181", "gid": 181, "wdpaid": 15797.0, "wdpa_pid": "15797", "pa_def": null, "name": "Jimi (Ruti) Valley", "orig_name": "Jimi (Ruti) Valley", "desig": "National Park", "desig_eng": "National Park", "desig_type": "National", "iucn_cat": "Not Reported", "int_crit": null, "marine": false, "rep_m_area": 0.0, "gis_m_area": 0.0, "rep_area": 41.8, "gis_area": 42.28, "no_take": "Not Applicable", "no_tk_area": 0.0, "status": "Designated", "status_yr": 1991.0, "gov_type": "Governance by Indigenous Peoples and Local Communities", "own_type": "Communal", "mang_auth": "Not Reported", "mang_plan": "Not Reported", "verif": null, "metadataid": null, "sub_loc": null, "parent_iso": null, "iso3": "PNG" }, "geometry": { "type": "Polygon", "coordinates": [ [ [ 144.338, -5.3 ], [ 144.363, -5.308 ], [ 144.374, -5.325 ], [ 144.368, -5.328 ], [ 144.344, -5.312 ], [ 144.341, -5.325 ], [ 144.325, -5.334 ], [ 144.27, -5.322 ], [ 144.27, -5.283 ], [ 144.324, -5.283 ], [ 144.338, -5.3 ] ] ] } },
{ "type": "Feature", "properties": { "gml_id": "World_Database_Protected_Areas_Polygons.180", "gid": 180, "wdpaid": 15789.0, "wdpa_pid": "15789", "pa_def": null, "name": "Crown Island", "orig_name": "Crown Island", "desig": "Wildlife Sanctuary", "desig_eng": "Wildlife Sanctuary", "desig_type": "National", "iucn_cat": "Not Reported", "int_crit": null, "marine": true, "rep_m_area": 0.0, "gis_m_area": 0.8, "rep_area": 589.69, "gis_area": 14.62, "no_take": "Not Reported", "no_tk_area": 0.0, "status": "Designated", "status_yr": 1977.0, "gov_type": "Governance by Indigenous Peoples and Local Communities", "own_type": "Communal", "mang_auth": "Not Reported", "mang_plan": "Not Reported", "verif": null, "metadataid": null, "sub_loc": null, "parent_iso": null, "iso3": "PNG" }, "geometry": { "type": "Polygon", "coordinates": [ [ [ 146.969, -5.091 ], [ 146.981, -5.103 ], [ 146.982, -5.13 ], [ 146.961, -5.145 ], [ 146.946, -5.142 ], [ 146.935, -5.13 ], [ 146.935, -5.11 ], [ 146.955, -5.092 ], [ 146.969, -5.091 ] ] ] } },
{ "type": "Feature", "properties": { "gml_id": "World_Database_Protected_Areas_Polygons.168", "gid": 168, "wdpaid": 9714.0, "wdpa_pid": "9714", "pa_def": null, "name": "Mt Gahavisuka", "orig_name": "Mt Gahavisuka", "desig": "Provincial Park", "desig_eng": "Provincial Park", "desig_type": "National", "iucn_cat": "Not Reported", "int_crit": null, "marine": false, "rep_m_area": 0.0, "gis_m_area": 0.0, "rep_area": 0.774, "gis_area": 2.0, "no_take": "Not Applicable", "no_tk_area": 0.0, "status": "Designated", "status_yr": 1989.0, "gov_type": "Governance by Indigenous Peoples and Local Communities", "own_type": "Communal", "mang_auth": "Not Reported", "mang_plan": "Not Reported", "verif": null, "metadataid": null, "sub_loc": null, "parent_iso": null, "iso3": "PNG" }, "geometry": { "type": "Polygon", "coordinates": [ [ [ 145.414, -6.035 ], [ 145.405, -6.031 ], [ 145.409, -6.021 ], [ 145.418, -6.025 ], [ 145.414, -6.035 ] ] ] } },
{ "type": "Feature", "properties": { "gml_id": "World_Database_Protected_Areas_Polygons.192", "gid": 192, "wdpaid": 316932.0, "wdpa_pid": "316932", "pa_def": null, "name": "Laugum Marine", "orig_name": "Laugum Marine", "desig": "Locally Managed Marine Area", "desig_eng": "Locally Managed Marine Area", "desig_type": "National", "iucn_cat": "Not Reported", "int_crit": null, "marine": true, "rep_m_area": 0.0, "gis_m_area": null, "rep_area": 0.73, "gis_area": null, "no_take": "Not Reported", "no_tk_area": 0.0, "status": "Designated", "status_yr": 2006.0, "gov_type": "Governance by Indigenous Peoples and Local Communities", "own_type": "Communal", "mang_auth": "Not Reported", "mang_plan": "Not Reported", "verif": null, "metadataid": null, "sub_loc": null, "parent_iso": null, "iso3": "PNG" }, "geometry": { "type": "Polygon", "coordinates": [ [ [ 145.807, -5.128 ], [ 145.808, -5.137 ], [ 145.798, -5.134 ], [ 145.807, -5.128 ] ] ] } },
{ "type": "Feature", "properties": { "gml_id": "World_Database_Protected_Areas_Polygons.193", "gid": 193, "wdpaid": 316933.0, "wdpa_pid": "316933", "pa_def": null, "name": "Tabad Island Marine", "orig_name": "Tabad Island Marine", "desig": "Locally Managed Marine Area", "desig_eng": "Locally Managed Marine Area", "desig_type": "National", "iucn_cat": "Not Reported", "int_crit": null, "marine": true, "rep_m_area": 0.0, "gis_m_area": null, "rep_area": 0.162, "gis_area": null, "no_take": "All ", "no_tk_area": 0.0, "status": "Designated", "status_yr": 2006.0, "gov_type": "Governance by Indigenous Peoples and Local Communities", "own_type": "Communal", "mang_auth": "Not Reported", "mang_plan": "Not Reported", "verif": null, "metadataid": null, "sub_loc": null, "parent_iso": null, "iso3": "PNG" }, "geometry": { "type": "Polygon", "coordinates": [ [ [ 145.813, -5.13 ], [ 145.812, -5.134 ], [ 145.81, -5.13 ], [ 145.813, -5.13 ] ] ] } },
{ "type": "Feature", "properties": { "gml_id": "World_Database_Protected_Areas_Polygons.197", "gid": 197, "wdpaid": 377713.0, "wdpa_pid": "377713", "pa_def": null, "name": "Klampun", "orig_name": "Klampun", "desig": "Wildlife Management Area", "desig_eng": "Wildlife Management Area", "desig_type": "National", "iucn_cat": "Not Reported", "int_crit": null, "marine": false, "rep_m_area": 0.0, "gis_m_area": 0.36, "rep_area": 52.0, "gis_area": 45.89, "no_take": "Not Applicable", "no_tk_area": 0.0, "status": "Designated", "status_yr": 2003.0, "gov_type": "Governance by Indigenous Peoples and Local Communities", "own_type": "Communal", "mang_auth": "Not Reported", "mang_plan": "Not Reported", "verif": null, "metadataid": null, "sub_loc": null, "parent_iso": null, "iso3": "PNG" }, "geometry": { "type": "Polygon", "coordinates": [ [ [ 152.123, -5.309 ], [ 152.054, -5.318 ], [ 151.989, -5.373 ], [ 151.978, -5.372 ], [ 151.972, -5.36 ], [ 151.973, -5.346 ], [ 152.01, -5.308 ], [ 152.03, -5.315 ], [ 152.068, -5.305 ], [ 152.098, -5.282 ], [ 152.123, -5.309 ] ] ] } },
{ "type": "Feature", "properties": { "gml_id": "World_Database_Protected_Areas_Polygons.195", "gid": 195, "wdpaid": 316938.0, "wdpa_pid": "316938", "pa_def": null, "name": "Laugum", "orig_name": "Laugum", "desig": "Wildlife Management Area", "desig_eng": "Wildlife Management Area", "desig_type": "National", "iucn_cat": "Not Reported", "int_crit": null, "marine": true, "rep_m_area": 0.0, "gis_m_area": null, "rep_area": 0.86, "gis_area": null, "no_take": "Not Reported", "no_tk_area": 0.0, "status": "Proposed", "status_yr": 2003.0, "gov_type": "Governance by Indigenous Peoples and Local Communities", "own_type": "Communal", "mang_auth": "Customary Land and Sea", "mang_plan": "Not Reported", "verif": null, "metadataid": null, "sub_loc": null, "parent_iso": null, "iso3": "PNG" }, "geometry": { "type": "Polygon", "coordinates": [ [ [ 145.81, -5.133 ], [ 145.817, -5.135 ], [ 145.811, -5.139 ], [ 145.81, -5.133 ] ] ] } },
{ "type": "Feature", "properties": { "gml_id": "World_Database_Protected_Areas_Polygons.194", "gid": 194, "wdpaid": 316937.0, "wdpa_pid": "316937", "pa_def": null, "name": "Mt Kaindi", "orig_name": "Mt Kaindi", "desig": "Wildlife Management Area", "desig_eng": "Wildlife Management Area", "desig_type": "National", "iucn_cat": "Not Reported", "int_crit": null, "marine": false, "rep_m_area": 0.0, "gis_m_area": 0.0, "rep_area": 15.02, "gis_area": 8.68, "no_take": "Not Applicable", "no_tk_area": 0.0, "status": "Designated", "status_yr": 1990.0, "gov_type": "Governance by Indigenous Peoples and Local Communities", "own_type": "Communal", "mang_auth": "Not Reported", "mang_plan": "Not Reported", "verif": null, "metadataid": null, "sub_loc": null, "parent_iso": null, "iso3": "PNG" }, "geometry": { "type": "Polygon", "coordinates": [ [ [ 146.685, -7.333 ], [ 146.695, -7.354 ], [ 146.661, -7.355 ], [ 146.662, -7.337 ], [ 146.685, -7.333 ] ] ] } },
{ "type": "Feature", "properties": { "gml_id": "World_Database_Protected_Areas_Polygons.201", "gid": 201, "wdpaid": 555547657.0, "wdpa_pid": "555547657", "pa_def": null, "name": "Tab Island", "orig_name": "Tab Island", "desig": "Locally Managed Marine Area", "desig_eng": "Locally Managed Marine Area", "desig_type": "National", "iucn_cat": "Not Reported", "int_crit": null, "marine": true, "rep_m_area": 0.0, "gis_m_area": 0.0, "rep_area": 9.697, "gis_area": 0.0, "no_take": "Not Reported", "no_tk_area": 0.0, "status": "Designated", "status_yr": 2006.0, "gov_type": "Governance by Indigenous Peoples and Local Communities", "own_type": "Communal", "mang_auth": "Not Reported", "mang_plan": "Not Reported", "verif": null, "metadataid": null, "sub_loc": null, "parent_iso": null, "iso3": "PNG" }, "geometry": { "type": "Polygon", "coordinates": [ [ [ 145.845, -5.184 ], [ 145.813, -5.188 ], [ 145.819, -5.16 ], [ 145.83, -5.153 ], [ 145.843, -5.161 ], [ 145.845, -5.184 ] ] ] } },
{ "type": "Feature", "properties": { "gml_id": "World_Database_Protected_Areas_Polygons.198", "gid": 198, "wdpaid": 377715.0, "wdpa_pid": "377715", "pa_def": null, "name": "Nusareng", "orig_name": "Nusareng", "desig": "Wildlife Management Area", "desig_eng": "Wildlife Management Area", "desig_type": "National", "iucn_cat": "Not Reported", "int_crit": null, "marine": false, "rep_m_area": 0.0, "gis_m_area": 0.0, "rep_area": 0.222, "gis_area": 10.26, "no_take": "Not Applicable", "no_tk_area": 0.0, "status": "Designated", "status_yr": 1986.0, "gov_type": "Governance by Indigenous Peoples and Local Communities", "own_type": "Communal", "mang_auth": "Not Reported", "mang_plan": "Not Reported", "verif": null, "metadataid": null, "sub_loc": null, "parent_iso": null, "iso3": "PNG" }, "geometry": { "type": "Polygon", "coordinates": [ [ [ 147.687, -6.449 ], [ 147.665, -6.429 ], [ 147.669, -6.407 ], [ 147.688, -6.423 ], [ 147.687, -6.449 ] ] ] } },
{ "type": "Feature", "properties": { "gml_id": "World_Database_Protected_Areas_Polygons.161", "gid": 161, "wdpaid": 4199.0, "wdpa_pid": "4199", "pa_def": null, "name": "Namanatabu", "orig_name": "Namanatabu", "desig": "Reserve", "desig_eng": "Reserve", "desig_type": "National", "iucn_cat": "Not Reported", "int_crit": null, "marine": false, "rep_m_area": 0.0, "gis_m_area": 0.0, "rep_area": 0.29, "gis_area": 0.55, "no_take": "Not Applicable", "no_tk_area": 0.0, "status": "Designated", "status_yr": 1979.0, "gov_type": "Governance by Indigenous Peoples and Local Communities", "own_type": "Communal", "mang_auth": "Not Reported", "mang_plan": "Not Reported", "verif": null, "metadataid": null, "sub_loc": null, "parent_iso": null, "iso3": "PNG" }, "geometry": { "type": "Polygon", "coordinates": [ [ [ 147.341, -9.399 ], [ 147.334, -9.401 ], [ 147.334, -9.396 ], [ 147.341, -9.399 ] ] ] } },
{ "type": "Feature", "properties": { "gml_id": "World_Database_Protected_Areas_Polygons.207", "gid": 207, "wdpaid": 555651675.0, "wdpa_pid": "555651675", "pa_def": null, "name": "Libano-Arisai", "orig_name": "Libano-Arisai", "desig": "Wildlife Management Area", "desig_eng": "Wildlife Management Area", "desig_type": "National", "iucn_cat": "Not Reported", "int_crit": null, "marine": false, "rep_m_area": 0.0, "gis_m_area": null, "rep_area": 0.0, "gis_area": null, "no_take": "Not Applicable", "no_tk_area": 0.0, "status": "Designated", "status_yr": 2008.0, "gov_type": "Governance by Indigenous Peoples and Local Communities", "own_type": "Communal", "mang_auth": "Not Reported", "mang_plan": "Not Reported", "verif": null, "metadataid": null, "sub_loc": null, "parent_iso": null, "iso3": "PNG" }, "geometry": { "type": "Polygon", "coordinates": [ [ [ 142.976, -6.353 ], [ 142.965, -6.358 ], [ 142.977, -6.371 ], [ 142.984, -6.4 ], [ 143.011, -6.414 ], [ 143.019, -6.439 ], [ 143.029, -6.442 ], [ 143.03, -6.458 ], [ 143.015, -6.449 ], [ 142.995, -6.459 ], [ 142.977, -6.45 ], [ 142.957, -6.404 ], [ 142.932, -6.386 ], [ 142.945, -6.38 ], [ 142.944, -6.37 ], [ 142.96, -6.362 ], [ 142.967, -6.346 ], [ 142.976, -6.353 ] ] ] } },
{ "type": "Feature", "properties": { "gml_id": "World_Database_Protected_Areas_Polygons.199", "gid": 199, "wdpaid": 377716.0, "wdpa_pid": "377716", "pa_def": null, "name": "Tavalo", "orig_name": "Tavalo", "desig": "Wildlife Management Area", "desig_eng": "Wildlife Management Area", "desig_type": "National", "iucn_cat": "Not Reported", "int_crit": null, "marine": true, "rep_m_area": 0.0, "gis_m_area": 13.75, "rep_area": 200.0, "gis_area": 23.14, "no_take": "Not Reported", "no_tk_area": 0.0, "status": "Designated", "status_yr": 1977.0, "gov_type": "Governance by Indigenous Peoples and Local Communities", "own_type": "Communal", "mang_auth": "Not Reported", "mang_plan": "Not Reported", "verif": null, "metadataid": null, "sub_loc": null, "parent_iso": null, "iso3": "PNG" }, "geometry": { "type": "Polygon", "coordinates": [ [ [ 150.858, -5.983 ], [ 150.881, -6.011 ], [ 150.903, -6.008 ], [ 150.903, -6.045 ], [ 150.856, -6.044 ], [ 150.855, -6.025 ], [ 150.872, -6.018 ], [ 150.85, -6.003 ], [ 150.858, -5.983 ] ] ] } },
{ "type": "Feature", "properties": { "gml_id": "World_Database_Protected_Areas_Polygons.177", "gid": 177, "wdpaid": 15783.0, "wdpa_pid": "15783", "pa_def": null, "name": "Neiru (Aird Hills)", "orig_name": "Neiru (Aird Hills)", "desig": "Wildlife Management Area", "desig_eng": "Wildlife Management Area", "desig_type": "National", "iucn_cat": "Not Reported", "int_crit": null, "marine": false, "rep_m_area": 0.0, "gis_m_area": 0.22, "rep_area": 0.04, "gis_area": 24.73, "no_take": "Not Applicable", "no_tk_area": 0.0, "status": "Designated", "status_yr": 1987.0, "gov_type": "Governance by Indigenous Peoples and Local Communities", "own_type": "Communal", "mang_auth": "Not Reported", "mang_plan": "Not Reported", "verif": null, "metadataid": null, "sub_loc": null, "parent_iso": null, "iso3": "PNG" }, "geometry": { "type": "MultiPolygon", "coordinates": [ [ [ [ 144.404, -7.429 ], [ 144.399, -7.45 ], [ 144.416, -7.463 ], [ 144.401, -7.475 ], [ 144.394, -7.454 ], [ 144.375, -7.453 ], [ 144.376, -7.431 ], [ 144.404, -7.429 ] ] ], [ [ [ 144.388, -7.423 ], [ 144.375, -7.43 ], [ 144.372, -7.455 ], [ 144.348, -7.459 ], [ 144.343, -7.424 ], [ 144.38, -7.418 ], [ 144.388, -7.423 ] ] ], [ [ [ 144.298, -7.417 ], [ 144.303, -7.425 ], [ 144.293, -7.423 ], [ 144.298, -7.417 ] ] ] ] } },
{ "type": "Feature", "properties": { "gml_id": "World_Database_Protected_Areas_Polygons.202", "gid": 202, "wdpaid": 555547658.0, "wdpa_pid": "555547658", "pa_def": null, "name": "Sinub Island Marine", "orig_name": "Sinub Island Marine", "desig": "Locally Managed Marine Area", "desig_eng": "Locally Managed Marine Area", "desig_type": "National", "iucn_cat": "Not Reported", "int_crit": null, "marine": true, "rep_m_area": 0.0, "gis_m_area": 0.0, "rep_area": 0.118, "gis_area": 0.0, "no_take": "Not Reported", "no_tk_area": 0.0, "status": "Designated", "status_yr": 2006.0, "gov_type": "Governance by Indigenous Peoples and Local Communities", "own_type": "Communal", "mang_auth": "Not Reported", "mang_plan": "Not Reported", "verif": null, "metadataid": null, "sub_loc": null, "parent_iso": null, "iso3": "PNG" }, "geometry": { "type": "Polygon", "coordinates": [ [ [ 145.81, -5.133 ], [ 145.817, -5.135 ], [ 145.811, -5.139 ], [ 145.81, -5.133 ] ] ] } },
{ "type": "Feature", "properties": { "gml_id": "World_Database_Protected_Areas_Polygons.184", "gid": 184, "wdpaid": 61533.0, "wdpa_pid": "61533", "pa_def": null, "name": "Lake Kutubu", "orig_name": "Lake Kutubu", "desig": "Wildlife Management Area", "desig_eng": "Wildlife Management Area", "desig_type": "National", "iucn_cat": "Not Reported", "int_crit": null, "marine": false, "rep_m_area": 0.0, "gis_m_area": 0.0, "rep_area": 49.24, "gis_area": 236.51, "no_take": "Not Applicable", "no_tk_area": 0.0, "status": "Designated", "status_yr": 1992.0, "gov_type": "Governance by Indigenous Peoples and Local Communities", "own_type": "Communal", "mang_auth": "Not Reported", "mang_plan": "Not Reported", "verif": null, "metadataid": null, "sub_loc": null, "parent_iso": null, "iso3": "PNG" }, "geometry": { "type": "Polygon", "coordinates": [ [ [ 143.277, -6.312 ], [ 143.44, -6.442 ], [ 143.397, -6.513 ], [ 143.379, -6.491 ], [ 143.321, -6.462 ], [ 143.315, -6.451 ], [ 143.263, -6.433 ], [ 143.241, -6.373 ], [ 143.255, -6.369 ], [ 143.262, -6.375 ], [ 143.262, -6.363 ], [ 143.228, -6.358 ], [ 143.228, -6.332 ], [ 143.251, -6.332 ], [ 143.259, -6.315 ], [ 143.277, -6.312 ] ] ] } },
{ "type": "Feature", "properties": { "gml_id": "World_Database_Protected_Areas_Polygons.171", "gid": 171, "wdpaid": 9719.0, "wdpa_pid": "9719", "pa_def": null, "name": "Sawataetae", "orig_name": "Sawataetae", "desig": "Wildlife Management Area", "desig_eng": "Wildlife Management Area", "desig_type": "National", "iucn_cat": "Not Reported", "int_crit": null, "marine": false, "rep_m_area": 0.0, "gis_m_area": 0.31, "rep_area": 7.0, "gis_area": 7.13, "no_take": "Not Applicable", "no_tk_area": 0.0, "status": "Designated", "status_yr": 1977.0, "gov_type": "Governance by Indigenous Peoples and Local Communities", "own_type": "Communal", "mang_auth": "Not Reported", "mang_plan": "Not Reported", "verif": null, "metadataid": null, "sub_loc": null, "parent_iso": null, "iso3": "PNG" }, "geometry": { "type": "Polygon", "coordinates": [ [ [ 151.031, -9.948 ], [ 151.04, -9.965 ], [ 151.025, -9.968 ], [ 151.025, -9.981 ], [ 151.013, -9.98 ], [ 151.01, -9.956 ], [ 151.031, -9.948 ] ] ] } },
{ "type": "Feature", "properties": { "gml_id": "World_Database_Protected_Areas_Polygons.157", "gid": 157, "wdpaid": 839.0, "wdpa_pid": "839", "pa_def": null, "name": "Varirata", "orig_name": "Varirata", "desig": "National Park", "desig_eng": "National Park", "desig_type": "National", "iucn_cat": "Not Reported", "int_crit": null, "marine": false, "rep_m_area": 0.0, "gis_m_area": 0.0, "rep_area": 10.63, "gis_area": 10.35, "no_take": "Not Applicable", "no_tk_area": 0.0, "status": "Designated", "status_yr": 1969.0, "gov_type": "Governance by Indigenous Peoples and Local Communities", "own_type": "Communal", "mang_auth": "Not Reported", "mang_plan": "Not Reported", "verif": null, "metadataid": null, "sub_loc": null, "parent_iso": null, "iso3": "PNG" }, "geometry": { "type": "Polygon", "coordinates": [ [ [ 147.372, -9.434 ], [ 147.373, -9.446 ], [ 147.387, -9.491 ], [ 147.374, -9.486 ], [ 147.368, -9.459 ], [ 147.346, -9.445 ], [ 147.346, -9.435 ], [ 147.372, -9.434 ] ] ] } },
{ "type": "Feature", "properties": { "gml_id": "World_Database_Protected_Areas_Polygons.208", "gid": 208, "wdpaid": 555651676.0, "wdpa_pid": "555651676", "pa_def": null, "name": "Libano-Hose", "orig_name": "Libano-Hose", "desig": "Wildlife Management Area", "desig_eng": "Wildlife Management Area", "desig_type": "National", "iucn_cat": "Not Reported", "int_crit": null, "marine": false, "rep_m_area": 0.0, "gis_m_area": null, "rep_area": 0.0, "gis_area": null, "no_take": "Not Applicable", "no_tk_area": 0.0, "status": "Designated", "status_yr": 2008.0, "gov_type": "Governance by Indigenous Peoples and Local Communities", "own_type": "Communal", "mang_auth": "Not Reported", "mang_plan": "Not Reported", "verif": null, "metadataid": null, "sub_loc": null, "parent_iso": null, "iso3": "PNG" }, "geometry": { "type": "Polygon", "coordinates": [ [ [ 142.972, -6.32 ], [ 142.987, -6.345 ], [ 142.976, -6.352 ], [ 142.967, -6.346 ], [ 142.96, -6.362 ], [ 142.944, -6.37 ], [ 142.945, -6.38 ], [ 142.912, -6.383 ], [ 142.876, -6.367 ], [ 142.855, -6.395 ], [ 142.84, -6.388 ], [ 142.87, -6.363 ], [ 142.87, -6.351 ], [ 142.906, -6.347 ], [ 142.926, -6.358 ], [ 142.955, -6.318 ], [ 142.972, -6.32 ] ] ] } },
{ "type": "Feature", "properties": { "gml_id": "World_Database_Protected_Areas_Polygons.178", "gid": 178, "wdpaid": 15787.0, "wdpa_pid": "15787", "pa_def": null, "name": "Oi Mada Wara", "orig_name": "Oi Mada Wara", "desig": "Wildlife Management Area", "desig_eng": "Wildlife Management Area", "desig_type": "National", "iucn_cat": "Not Reported", "int_crit": null, "marine": false, "rep_m_area": 0.0, "gis_m_area": 0.0, "rep_area": 224.948, "gis_area": 226.39, "no_take": "Not Applicable", "no_tk_area": 0.0, "status": "Designated", "status_yr": 1981.0, "gov_type": "Governance by Indigenous Peoples and Local Communities", "own_type": "Communal", "mang_auth": "Not Reported", "mang_plan": "Not Reported", "verif": null, "metadataid": null, "sub_loc": null, "parent_iso": null, "iso3": "PNG" }, "geometry": { "type": "Polygon", "coordinates": [ [ [ 150.254, -9.316 ], [ 150.272, -9.341 ], [ 150.288, -9.332 ], [ 150.326, -9.341 ], [ 150.299, -9.355 ], [ 150.316, -9.383 ], [ 150.339, -9.4 ], [ 150.297, -9.41 ], [ 150.287, -9.428 ], [ 150.231, -9.409 ], [ 150.2, -9.414 ], [ 150.199, -9.394 ], [ 150.211, -9.389 ], [ 150.211, -9.372 ], [ 150.178, -9.37 ], [ 150.127, -9.322 ], [ 150.18, -9.261 ], [ 150.25, -9.266 ], [ 150.25, -9.277 ], [ 150.272, -9.294 ], [ 150.254, -9.316 ] ] ] } },
{ "type": "Feature", "properties": { "gml_id": "World_Database_Protected_Areas_Polygons.209", "gid": 209, "wdpaid": 555651677.0, "wdpa_pid": "555651677", "pa_def": null, "name": "Sulamesi", "orig_name": "Sulamesi", "desig": "Wildlife Management Area", "desig_eng": "Wildlife Management Area", "desig_type": "National", "iucn_cat": "Not Reported", "int_crit": null, "marine": false, "rep_m_area": 0.0, "gis_m_area": null, "rep_area": 0.0, "gis_area": null, "no_take": "Not Applicable", "no_tk_area": 0.0, "status": "Designated", "status_yr": 2007.0, "gov_type": "Governance by Indigenous Peoples and Local Communities", "own_type": "Communal", "mang_auth": "Not Reported", "mang_plan": "Not Reported", "verif": null, "metadataid": null, "sub_loc": null, "parent_iso": null, "iso3": "PNG" }, "geometry": { "type": "Polygon", "coordinates": [ [ [ 143.007, -6.607 ], [ 143.006, -6.822 ], [ 142.983, -6.855 ], [ 142.961, -6.849 ], [ 142.941, -6.864 ], [ 142.937, -6.877 ], [ 142.929, -6.877 ], [ 142.935, -6.866 ], [ 142.931, -6.853 ], [ 142.913, -6.872 ], [ 142.851, -6.865 ], [ 142.803, -6.825 ], [ 142.77, -6.815 ], [ 142.775, -6.804 ], [ 142.761, -6.797 ], [ 142.76, -6.781 ], [ 142.748, -6.785 ], [ 142.738, -6.763 ], [ 142.75, -6.752 ], [ 142.753, -6.725 ], [ 142.816, -6.657 ], [ 142.841, -6.608 ], [ 142.866, -6.602 ], [ 143.007, -6.607 ] ] ] } },
{ "type": "Feature", "properties": { "gml_id": "World_Database_Protected_Areas_Polygons.179", "gid": 179, "wdpaid": 15788.0, "wdpa_pid": "15788", "pa_def": null, "name": "Pirung Eight Islands", "orig_name": "Pirung Eight Islands", "desig": "Wildlife Management Area", "desig_eng": "Wildlife Management Area", "desig_type": "National", "iucn_cat": "Not Reported", "int_crit": null, "marine": true, "rep_m_area": 0.0, "gis_m_area": 530.97, "rep_area": 432.0, "gis_area": 545.62, "no_take": "Not Reported", "no_tk_area": 0.0, "status": "Designated", "status_yr": 1989.0, "gov_type": "Governance by Indigenous Peoples and Local Communities", "own_type": "Communal", "mang_auth": "Not Reported", "mang_plan": "Not Reported", "verif": null, "metadataid": null, "sub_loc": null, "parent_iso": null, "iso3": "PNG" }, "geometry": { "type": "Polygon", "coordinates": [ [ [ 155.369, -5.928 ], [ 155.503, -6.04 ], [ 155.54, -6.087 ], [ 155.621, -6.103 ], [ 155.711, -6.163 ], [ 155.747, -6.202 ], [ 155.79, -6.287 ], [ 155.737, -6.314 ], [ 155.698, -6.262 ], [ 155.667, -6.251 ], [ 155.66, -6.223 ], [ 155.643, -6.221 ], [ 155.649, -6.228 ], [ 155.635, -6.217 ], [ 155.632, -6.199 ], [ 155.639, -6.191 ], [ 155.632, -6.189 ], [ 155.637, -6.177 ], [ 155.628, -6.167 ], [ 155.624, -6.176 ], [ 155.617, -6.169 ], [ 155.612, -6.184 ], [ 155.627, -6.202 ], [ 155.624, -6.22 ], [ 155.6, -6.217 ], [ 155.593, -6.208 ], [ 155.585, -6.222 ], [ 155.548, -6.208 ], [ 155.546, -6.198 ], [ 155.561, -6.191 ], [ 155.545, -6.189 ], [ 155.545, -6.171 ], [ 155.533, -6.167 ], [ 155.532, -6.158 ], [ 155.527, -6.177 ], [ 155.515, -6.178 ], [ 155.463, -6.154 ], [ 155.42, -6.095 ], [ 155.423, -6.086 ], [ 155.404, -6.044 ], [ 155.405, -5.989 ], [ 155.387, -5.985 ], [ 155.363, -5.963 ], [ 155.359, -5.95 ], [ 155.369, -5.928 ] ] ] } },
{ "type": "Feature", "properties": { "gml_id": "World_Database_Protected_Areas_Polygons.176", "gid": 176, "wdpaid": 15782.0, "wdpa_pid": "15782", "pa_def": null, "name": "Iomare", "orig_name": "Iomare", "desig": "Wildlife Management Area", "desig_eng": "Wildlife Management Area", "desig_type": "National", "iucn_cat": "Not Reported", "int_crit": null, "marine": false, "rep_m_area": 0.0, "gis_m_area": 0.0, "rep_area": 38.27, "gis_area": 39.51, "no_take": "Not Applicable", "no_tk_area": 0.0, "status": "Designated", "status_yr": 1987.0, "gov_type": "Governance by Indigenous Peoples and Local Communities", "own_type": "Communal", "mang_auth": "Not Reported", "mang_plan": "Not Reported", "verif": null, "metadataid": null, "sub_loc": null, "parent_iso": null, "iso3": "PNG" }, "geometry": { "type": "Polygon", "coordinates": [ [ [ 147.254, -9.222 ], [ 147.294, -9.254 ], [ 147.273, -9.312 ], [ 147.256, -9.304 ], [ 147.234, -9.268 ], [ 147.235, -9.252 ], [ 147.254, -9.222 ] ] ] } },
{ "type": "Feature", "properties": { "gml_id": "World_Database_Protected_Areas_Polygons.188", "gid": 188, "wdpaid": 166883.0, "wdpa_pid": "166883", "pa_def": null, "name": "Lake Kutubu", "orig_name": "Lake Kutubu", "desig": "Wetland of International Importance (Ramsar Site)", "desig_eng": "Wetland of International Importance (Ramsar Site)", "desig_type": "International", "iucn_cat": "Not Reported", "int_crit": null, "marine": false, "rep_m_area": 0.0, "gis_m_area": 0.0, "rep_area": 49.24, "gis_area": 0.0, "no_take": "Not Applicable", "no_tk_area": 0.0, "status": "Designated", "status_yr": 1998.0, "gov_type": "Not Reported", "own_type": "Not Reported", "mang_auth": "Not Reported", "mang_plan": "Management plan is available but not implented", "verif": null, "metadataid": null, "sub_loc": null, "parent_iso": null, "iso3": "PNG" }, "geometry": { "type": "Polygon", "coordinates": [ [ [ 143.277, -6.312 ], [ 143.44, -6.442 ], [ 143.397, -6.513 ], [ 143.379, -6.491 ], [ 143.321, -6.462 ], [ 143.315, -6.451 ], [ 143.263, -6.433 ], [ 143.241, -6.373 ], [ 143.255, -6.369 ], [ 143.262, -6.375 ], [ 143.262, -6.363 ], [ 143.228, -6.358 ], [ 143.228, -6.332 ], [ 143.251, -6.332 ], [ 143.259, -6.315 ], [ 143.277, -6.312 ] ] ] } },
{ "type": "Feature", "properties": { "gml_id": "World_Database_Protected_Areas_Polygons.156", "gid": 156, "wdpaid": 838.0, "wdpa_pid": "838", "pa_def": null, "name": "Mc Adams", "orig_name": "Mc Adams", "desig": "National Park", "desig_eng": "National Park", "desig_type": "National", "iucn_cat": "Not Reported", "int_crit": null, "marine": false, "rep_m_area": 0.0, "gis_m_area": 0.0, "rep_area": 20.81, "gis_area": 21.22, "no_take": "Not Applicable", "no_tk_area": 0.0, "status": "Designated", "status_yr": 1962.0, "gov_type": "Governance by Indigenous Peoples and Local Communities", "own_type": "Communal", "mang_auth": "Not Reported", "mang_plan": "Not Reported", "verif": null, "metadataid": null, "sub_loc": null, "parent_iso": null, "iso3": "PNG" }, "geometry": { "type": "Polygon", "coordinates": [ [ [ 146.671, -7.261 ], [ 146.684, -7.289 ], [ 146.697, -7.299 ], [ 146.676, -7.3 ], [ 146.675, -7.322 ], [ 146.649, -7.332 ], [ 146.653, -7.275 ], [ 146.671, -7.261 ] ] ] } },
{ "type": "Feature", "properties": { "gml_id": "World_Database_Protected_Areas_Polygons.200", "gid": 200, "wdpaid": 377717.0, "wdpa_pid": "377717", "pa_def": null, "name": "Kavakuna Caves", "orig_name": "Kavakuna Caves", "desig": "Wildlife Management Area", "desig_eng": "Wildlife Management Area", "desig_type": "National", "iucn_cat": "Not Reported", "int_crit": null, "marine": false, "rep_m_area": 0.0, "gis_m_area": 0.0, "rep_area": 0.0, "gis_area": 32.23, "no_take": "Not Applicable", "no_tk_area": 0.0, "status": "Designated", "status_yr": 1997.0, "gov_type": "Governance by Indigenous Peoples and Local Communities", "own_type": "Communal", "mang_auth": "Not Reported", "mang_plan": "Not Reported", "verif": null, "metadataid": null, "sub_loc": null, "parent_iso": null, "iso3": "PNG" }, "geometry": { "type": "Polygon", "coordinates": [ [ [ 151.618, -5.396 ], [ 151.614, -5.407 ], [ 151.538, -5.434 ], [ 151.523, -5.456 ], [ 151.517, -5.453 ], [ 151.528, -5.429 ], [ 151.525, -5.396 ], [ 151.618, -5.396 ] ] ] } },
{ "type": "Feature", "properties": { "gml_id": "World_Database_Protected_Areas_Polygons.174", "gid": 174, "wdpaid": 12888.0, "wdpa_pid": "12888", "pa_def": null, "name": "Ranba", "orig_name": "Ranba", "desig": "Wildlife Sanctuary", "desig_eng": "Wildlife Sanctuary", "desig_type": "National", "iucn_cat": "Not Reported", "int_crit": null, "marine": false, "rep_m_area": 0.0, "gis_m_area": 0.0, "rep_area": 157.24, "gis_area": 158.19, "no_take": "Not Applicable", "no_tk_area": 0.0, "status": "Designated", "status_yr": 1977.0, "gov_type": "Governance by Indigenous Peoples and Local Communities", "own_type": "Communal", "mang_auth": "Not Reported", "mang_plan": "Not Reported", "verif": null, "metadataid": null, "sub_loc": null, "parent_iso": null, "iso3": "PNG" }, "geometry": { "type": "Polygon", "coordinates": [ [ [ 147.107, -5.292 ], [ 147.142, -5.301 ], [ 147.15, -5.332 ], [ 147.169, -5.338 ], [ 147.172, -5.35 ], [ 147.164, -5.364 ], [ 147.136, -5.384 ], [ 147.099, -5.382 ], [ 147.073, -5.358 ], [ 147.076, -5.344 ], [ 147.061, -5.341 ], [ 147.062, -5.312 ], [ 147.076, -5.304 ], [ 147.083, -5.318 ], [ 147.094, -5.289 ], [ 147.104, -5.285 ], [ 147.107, -5.292 ] ] ] } },
{ "type": "Feature", "properties": { "gml_id": "World_Database_Protected_Areas_Polygons.206", "gid": 206, "wdpaid": 555651674.0, "wdpa_pid": "555651674", "pa_def": null, "name": "Inaina", "orig_name": "Inaina", "desig": "Wildlife Management Area", "desig_eng": "Wildlife Management Area", "desig_type": "National", "iucn_cat": "Not Reported", "int_crit": null, "marine": false, "rep_m_area": 0.0, "gis_m_area": null, "rep_area": 0.0, "gis_area": null, "no_take": "Not Applicable", "no_tk_area": 0.0, "status": "Designated", "status_yr": null, "gov_type": "Governance by Indigenous Peoples and Local Communities", "own_type": "Communal", "mang_auth": "Not Reported", "mang_plan": "Not Reported", "verif": null, "metadataid": null, "sub_loc": null, "parent_iso": null, "iso3": "PNG" }, "geometry": { "type": "Polygon", "coordinates": [ [ [ 147.054, -8.902 ], [ 146.984, -8.927 ], [ 146.977, -8.917 ], [ 147.027, -8.857 ], [ 147.038, -8.825 ], [ 147.054, -8.902 ] ] ] } },
{ "type": "Feature", "properties": { "gml_id": "World_Database_Protected_Areas_Polygons.173", "gid": 173, "wdpaid": 9721.0, "wdpa_pid": "9721", "pa_def": null, "name": "Siwi-Utame", "orig_name": "Siwi-Utame", "desig": "Wildlife Management Area", "desig_eng": "Wildlife Management Area", "desig_type": "National", "iucn_cat": "Not Reported", "int_crit": null, "marine": false, "rep_m_area": 0.0, "gis_m_area": 0.0, "rep_area": 125.4, "gis_area": 121.82, "no_take": "Not Applicable", "no_tk_area": 0.0, "status": "Designated", "status_yr": 1977.0, "gov_type": "Governance by Indigenous Peoples and Local Communities", "own_type": "Communal", "mang_auth": "Not Reported", "mang_plan": "Not Reported", "verif": null, "metadataid": null, "sub_loc": null, "parent_iso": null, "iso3": "PNG" }, "geometry": { "type": "Polygon", "coordinates": [ [ [ 143.894, -6.223 ], [ 143.925, -6.241 ], [ 143.919, -6.263 ], [ 143.943, -6.289 ], [ 143.947, -6.306 ], [ 143.914, -6.307 ], [ 143.885, -6.329 ], [ 143.863, -6.313 ], [ 143.834, -6.311 ], [ 143.819, -6.297 ], [ 143.81, -6.299 ], [ 143.793, -6.253 ], [ 143.797, -6.247 ], [ 143.816, -6.253 ], [ 143.839, -6.236 ], [ 143.856, -6.239 ], [ 143.859, -6.226 ], [ 143.894, -6.223 ] ] ] } },
{ "type": "Feature", "properties": { "gml_id": "World_Database_Protected_Areas_Polygons.170", "gid": 170, "wdpaid": 9718.0, "wdpa_pid": "9718", "pa_def": null, "name": "Lake Lavu", "orig_name": "Lake Lavu", "desig": "Wildlife Management Area", "desig_eng": "Wildlife Management Area", "desig_type": "National", "iucn_cat": "Not Reported", "int_crit": null, "marine": false, "rep_m_area": 0.0, "gis_m_area": 0.0, "rep_area": 26.4, "gis_area": 26.21, "no_take": "Not Applicable", "no_tk_area": 0.0, "status": "Designated", "status_yr": 1981.0, "gov_type": "Governance by Indigenous Peoples and Local Communities", "own_type": "Communal", "mang_auth": "Not Reported", "mang_plan": "Not Reported", "verif": null, "metadataid": null, "sub_loc": null, "parent_iso": null, "iso3": "PNG" }, "geometry": { "type": "Polygon", "coordinates": [ [ [ 150.637, -9.529 ], [ 150.606, -9.539 ], [ 150.586, -9.512 ], [ 150.614, -9.489 ], [ 150.659, -9.498 ], [ 150.637, -9.529 ] ] ] } },
{ "type": "Feature", "properties": { "gml_id": "World_Database_Protected_Areas_Polygons.159", "gid": 159, "wdpaid": 4123.0, "wdpa_pid": "4123", "pa_def": null, "name": "Pokili", "orig_name": "Pokili", "desig": "Wildlife Management Area", "desig_eng": "Wildlife Management Area", "desig_type": "National", "iucn_cat": "Not Reported", "int_crit": null, "marine": false, "rep_m_area": 0.0, "gis_m_area": 0.0, "rep_area": 98.4, "gis_area": 122.31, "no_take": "Not Applicable", "no_tk_area": 0.0, "status": "Designated", "status_yr": 1975.0, "gov_type": "Governance by Indigenous Peoples and Local Communities", "own_type": "Communal", "mang_auth": "Not Reported", "mang_plan": "Not Reported", "verif": null, "metadataid": null, "sub_loc": null, "parent_iso": null, "iso3": "PNG" }, "geometry": { "type": "Polygon", "coordinates": [ [ [ 150.588, -5.537 ], [ 150.646, -5.582 ], [ 150.632, -5.629 ], [ 150.607, -5.651 ], [ 150.592, -5.646 ], [ 150.564, -5.661 ], [ 150.515, -5.575 ], [ 150.588, -5.537 ] ] ] } },
{ "type": "Feature", "properties": { "gml_id": "World_Database_Protected_Areas_Polygons.165", "gid": 165, "wdpaid": 4203.0, "wdpa_pid": "4203", "pa_def": null, "name": "Ranba", "orig_name": "Ranba", "desig": "Wildlife Management Area", "desig_eng": "Wildlife Management Area", "desig_type": "National", "iucn_cat": "Not Reported", "int_crit": null, "marine": true, "rep_m_area": 0.0, "gis_m_area": 286.06, "rep_area": 419.22, "gis_area": 663.46, "no_take": "Not Reported", "no_tk_area": 0.0, "status": "Designated", "status_yr": 1977.0, "gov_type": "Governance by Indigenous Peoples and Local Communities", "own_type": "Communal", "mang_auth": "Not Reported", "mang_plan": "Not Reported", "verif": null, "metadataid": null, "sub_loc": null, "parent_iso": null, "iso3": "PNG" }, "geometry": { "type": "Polygon", "coordinates": [ [ [ 147.092, -5.177 ], [ 147.123, -5.189 ], [ 147.148, -5.22 ], [ 147.207, -5.249 ], [ 147.215, -5.268 ], [ 147.207, -5.288 ], [ 147.23, -5.318 ], [ 147.244, -5.355 ], [ 147.232, -5.378 ], [ 147.244, -5.403 ], [ 147.233, -5.427 ], [ 147.172, -5.443 ], [ 147.141, -5.468 ], [ 147.105, -5.464 ], [ 147.048, -5.413 ], [ 146.979, -5.379 ], [ 146.967, -5.349 ], [ 146.971, -5.334 ], [ 146.961, -5.28 ], [ 146.976, -5.233 ], [ 146.995, -5.218 ], [ 147.039, -5.21 ], [ 147.076, -5.18 ], [ 147.092, -5.177 ] ], [ [ 147.103, -5.284 ], [ 147.083, -5.318 ], [ 147.076, -5.304 ], [ 147.061, -5.314 ], [ 147.061, -5.341 ], [ 147.076, -5.344 ], [ 147.073, -5.358 ], [ 147.091, -5.376 ], [ 147.136, -5.384 ], [ 147.163, -5.365 ], [ 147.172, -5.35 ], [ 147.169, -5.338 ], [ 147.15, -5.332 ], [ 147.142, -5.301 ], [ 147.107, -5.292 ], [ 147.103, -5.284 ] ] ] } },
{ "type": "Feature", "properties": { "gml_id": "World_Database_Protected_Areas_Polygons.205", "gid": 205, "wdpaid": 555651673.0, "wdpa_pid": "555651673", "pa_def": null, "name": "Managalas", "orig_name": "Managalas", "desig": "Conservation Area", "desig_eng": "Conservation Area", "desig_type": "National", "iucn_cat": "Not Reported", "int_crit": null, "marine": false, "rep_m_area": 0.0, "gis_m_area": null, "rep_area": 0.0, "gis_area": null, "no_take": "Not Applicable", "no_tk_area": 0.0, "status": "Designated", "status_yr": 2017.0, "gov_type": "Governance by Indigenous Peoples and Local Communities", "own_type": "Communal", "mang_auth": "Not Reported", "mang_plan": "Not Reported", "verif": null, "metadataid": null, "sub_loc": null, "parent_iso": null, "iso3": "PNG" }, "geometry": { "type": "Polygon", "coordinates": [ [ [ 148.369, -8.862 ], [ 148.421, -8.877 ], [ 148.432, -8.998 ], [ 148.513, -9.038 ], [ 148.522, -9.069 ], [ 148.547, -9.09 ], [ 148.586, -9.182 ], [ 148.546, -9.176 ], [ 148.531, -9.215 ], [ 148.503, -9.248 ], [ 148.396, -9.284 ], [ 148.39, -9.313 ], [ 148.376, -9.325 ], [ 148.339, -9.328 ], [ 148.324, -9.346 ], [ 148.27, -9.375 ], [ 148.234, -9.373 ], [ 148.216, -9.381 ], [ 148.181, -9.407 ], [ 148.157, -9.441 ], [ 148.117, -9.475 ], [ 148.093, -9.452 ], [ 148.064, -9.463 ], [ 148.063, -9.425 ], [ 148.046, -9.409 ], [ 148.038, -9.384 ], [ 148.06, -9.327 ], [ 148.094, -9.29 ], [ 148.119, -9.244 ], [ 148.136, -9.17 ], [ 148.169, -9.132 ], [ 148.163, -9.115 ], [ 148.132, -9.108 ], [ 148.105, -9.083 ], [ 148.108, -9.062 ], [ 148.172, -8.997 ], [ 148.172, -8.979 ], [ 148.208, -8.957 ], [ 148.217, -8.945 ], [ 148.215, -8.929 ], [ 148.268, -8.895 ], [ 148.268, -8.867 ], [ 148.369, -8.862 ] ] ] } },
{ "type": "Feature", "properties": { "gml_id": "World_Database_Protected_Areas_Polygons.158", "gid": 158, "wdpaid": 4122.0, "wdpa_pid": "4122", "pa_def": null, "name": "Garu", "orig_name": "Garu", "desig": "Wildlife Management Area", "desig_eng": "Wildlife Management Area", "desig_type": "National", "iucn_cat": "Not Reported", "int_crit": null, "marine": false, "rep_m_area": 0.0, "gis_m_area": 1.22, "rep_area": 87.0, "gis_area": 75.66, "no_take": "Not Applicable", "no_tk_area": 0.0, "status": "Designated", "status_yr": 1976.0, "gov_type": "Governance by Indigenous Peoples and Local Communities", "own_type": "Communal", "mang_auth": "Not Reported", "mang_plan": "Not Reported", "verif": null, "metadataid": null, "sub_loc": null, "parent_iso": null, "iso3": "PNG" }, "geometry": { "type": "Polygon", "coordinates": [ [ [ 149.964, -5.396 ], [ 150.026, -5.418 ], [ 150.028, -5.473 ], [ 149.934, -5.495 ], [ 149.907, -5.493 ], [ 149.947, -5.459 ], [ 149.966, -5.415 ], [ 149.964, -5.396 ] ] ] } },
{ "type": "Feature", "properties": { "gml_id": "World_Database_Protected_Areas_Polygons.164", "gid": 164, "wdpaid": 4202.0, "wdpa_pid": "4202", "pa_def": null, "name": "Maza", "orig_name": "Maza", "desig": "Wildlife Management Area", "desig_eng": "Wildlife Management Area", "desig_type": "National", "iucn_cat": "Not Reported", "int_crit": null, "marine": true, "rep_m_area": 0.0, "gis_m_area": 3337.71, "rep_area": 1842.3, "gis_area": 3337.71, "no_take": "Not Reported", "no_tk_area": 0.0, "status": "Designated", "status_yr": 1978.0, "gov_type": "Governance by Indigenous Peoples and Local Communities", "own_type": "Communal", "mang_auth": "Not Reported", "mang_plan": "Not Reported", "verif": null, "metadataid": null, "sub_loc": null, "parent_iso": null, "iso3": "PNG" }, "geometry": { "type": "Polygon", "coordinates": [ [ [ 143.435, -8.969 ], [ 143.45, -8.981 ], [ 143.433, -9.031 ], [ 143.47, -9.1 ], [ 143.463, -9.207 ], [ 143.367, -9.369 ], [ 143.225, -9.483 ], [ 143.225, -9.55 ], [ 143.083, -9.55 ], [ 142.947, -9.224 ], [ 142.956, -9.143 ], [ 143.018, -9.1 ], [ 143.095, -9.077 ], [ 143.133, -9.075 ], [ 143.182, -9.036 ], [ 143.225, -9.037 ], [ 143.284, -9.018 ], [ 143.33, -9.027 ], [ 143.351, -9.017 ], [ 143.375, -9.022 ], [ 143.39, -8.994 ], [ 143.435, -8.969 ] ] ] } },
{ "type": "Feature", "properties": { "gml_id": "World_Database_Protected_Areas_Polygons.187", "gid": 187, "wdpaid": 106683.0, "wdpa_pid": "106683", "pa_def": null, "name": "Crater Mountain", "orig_name": "Crater Mountain", "desig": "Wildlife Management Area", "desig_eng": "Wildlife Management Area", "desig_type": "National", "iucn_cat": "Not Reported", "int_crit": null, "marine": false, "rep_m_area": 0.0, "gis_m_area": 0.0, "rep_area": 2700.0, "gis_area": 2754.67, "no_take": "Not Applicable", "no_tk_area": 0.0, "status": "Designated", "status_yr": 1993.0, "gov_type": "Governance by Indigenous Peoples and Local Communities", "own_type": "Communal", "mang_auth": "Not Reported", "mang_plan": "Not Reported", "verif": null, "metadataid": null, "sub_loc": null, "parent_iso": null, "iso3": "PNG" }, "geometry": { "type": "Polygon", "coordinates": [ [ [ 145.258, -6.533 ], [ 145.333, -6.667 ], [ 145.316, -6.688 ], [ 145.312, -6.716 ], [ 145.298, -6.721 ], [ 145.282, -6.752 ], [ 145.269, -6.761 ], [ 145.254, -6.808 ], [ 145.255, -6.83 ], [ 145.24, -6.834 ], [ 145.338, -6.899 ], [ 145.304, -6.909 ], [ 145.305, -6.935 ], [ 145.326, -6.976 ], [ 145.366, -7.003 ], [ 145.374, -7.018 ], [ 145.338, -7.069 ], [ 145.288, -7.071 ], [ 145.257, -7.047 ], [ 145.234, -7.06 ], [ 145.224, -7.05 ], [ 145.195, -7.049 ], [ 145.173, -7.026 ], [ 145.156, -6.991 ], [ 145.133, -6.995 ], [ 145.123, -7.008 ], [ 145.131, -7.033 ], [ 145.124, -7.04 ], [ 145.067, -6.982 ], [ 145.053, -6.997 ], [ 145.028, -6.989 ], [ 145.03, -7.009 ], [ 145.009, -7.022 ], [ 144.993, -6.993 ], [ 144.965, -7.0 ], [ 144.951, -6.98 ], [ 144.935, -6.988 ], [ 144.936, -6.962 ], [ 144.954, -6.947 ], [ 144.958, -6.918 ], [ 144.936, -6.901 ], [ 144.901, -6.9 ], [ 144.886, -6.892 ], [ 144.873, -6.897 ], [ 144.85, -6.886 ], [ 144.809, -6.898 ], [ 144.798, -6.911 ], [ 144.782, -6.906 ], [ 144.793, -6.883 ], [ 144.785, -6.87 ], [ 144.788, -6.856 ], [ 144.77, -6.842 ], [ 144.795, -6.829 ], [ 144.805, -6.807 ], [ 144.8, -6.792 ], [ 144.782, -6.776 ], [ 144.769, -6.775 ], [ 144.74, -6.747 ], [ 144.696, -6.747 ], [ 144.694, -6.734 ], [ 144.716, -6.715 ], [ 144.739, -6.716 ], [ 144.758, -6.706 ], [ 144.794, -6.736 ], [ 144.83, -6.733 ], [ 144.851, -6.755 ], [ 144.871, -6.752 ], [ 144.88, -6.729 ], [ 144.888, -6.726 ], [ 144.886, -6.698 ], [ 144.96, -6.6 ], [ 144.957, -6.571 ], [ 144.984, -6.532 ], [ 145.001, -6.416 ], [ 145.167, -6.467 ], [ 145.167, -6.5 ], [ 145.258, -6.533 ] ] ] } },
{ "type": "Feature", "properties": { "gml_id": "World_Database_Protected_Areas_Polygons.210", "gid": 210, "wdpaid": 555651678.0, "wdpa_pid": "555651678", "pa_def": null, "name": "YUS", "orig_name": "YUS", "desig": "Conservation Area", "desig_eng": "Conservation Area", "desig_type": "National", "iucn_cat": "VI", "int_crit": null, "marine": false, "rep_m_area": 0.0, "gis_m_area": null, "rep_area": 750.0, "gis_area": null, "no_take": "Not Applicable", "no_tk_area": 0.0, "status": "Designated", "status_yr": 2009.0, "gov_type": "Governance by Indigenous Peoples and Local Communities", "own_type": "Communal", "mang_auth": "YUS Conservation Area Committee", "mang_plan": "Yes", "verif": null, "metadataid": null, "sub_loc": null, "parent_iso": null, "iso3": "PNG" }, "geometry": { "type": "Polygon", "coordinates": [ [ [ 146.47, -5.922 ], [ 146.509, -5.934 ], [ 146.528, -5.955 ], [ 146.484, -6.002 ], [ 146.505, -6.012 ], [ 146.526, -6.01 ], [ 146.537, -6.024 ], [ 146.559, -6.033 ], [ 146.565, -6.043 ], [ 146.56, -6.057 ], [ 146.57, -6.063 ], [ 146.578, -6.04 ], [ 146.598, -6.031 ], [ 146.599, -6.02 ], [ 146.608, -6.021 ], [ 146.615, -5.99 ], [ 146.631, -6.018 ], [ 146.681, -5.996 ], [ 146.677, -5.98 ], [ 146.655, -5.962 ], [ 146.656, -5.939 ], [ 146.632, -5.92 ], [ 146.642, -5.914 ], [ 146.65, -5.928 ], [ 146.671, -5.929 ], [ 146.694, -5.897 ], [ 146.696, -5.868 ], [ 146.704, -5.873 ], [ 146.731, -5.858 ], [ 146.742, -5.842 ], [ 146.769, -5.827 ], [ 146.794, -5.853 ], [ 146.827, -5.835 ], [ 146.86, -5.833 ], [ 146.905, -5.853 ], [ 146.919, -5.863 ], [ 146.93, -5.886 ], [ 146.89, -5.899 ], [ 146.865, -5.931 ], [ 146.852, -5.959 ], [ 146.863, -5.984 ], [ 146.849, -5.998 ], [ 146.848, -6.022 ], [ 146.857, -6.019 ], [ 146.857, -6.029 ], [ 146.868, -6.025 ], [ 146.866, -6.038 ], [ 146.885, -6.058 ], [ 146.95, -6.094 ], [ 146.959, -6.132 ], [ 146.987, -6.135 ], [ 146.997, -6.186 ], [ 146.992, -6.231 ], [ 146.801, -6.233 ], [ 146.723, -6.218 ], [ 146.731, -6.212 ], [ 146.731, -6.17 ], [ 146.766, -6.128 ], [ 146.781, -6.134 ], [ 146.795, -6.165 ], [ 146.825, -6.166 ], [ 146.841, -6.183 ], [ 146.952, -6.189 ], [ 146.957, -6.171 ], [ 146.929, -6.136 ], [ 146.924, -6.145 ], [ 146.894, -6.146 ], [ 146.887, -6.127 ], [ 146.843, -6.11 ], [ 146.839, -6.101 ], [ 146.854, -6.082 ], [ 146.851, -6.072 ], [ 146.865, -6.047 ], [ 146.833, -6.022 ], [ 146.827, -5.998 ], [ 146.807, -5.998 ], [ 146.804, -5.976 ], [ 146.814, -5.957 ], [ 146.752, -5.917 ], [ 146.73, -5.935 ], [ 146.717, -5.977 ], [ 146.7, -5.985 ], [ 146.672, -6.022 ], [ 146.672, -6.046 ], [ 146.643, -6.035 ], [ 146.627, -6.059 ], [ 146.63, -6.065 ], [ 146.605, -6.058 ], [ 146.596, -6.077 ], [ 146.584, -6.073 ], [ 146.583, -6.081 ], [ 146.596, -6.085 ], [ 146.609, -6.113 ], [ 146.602, -6.142 ], [ 146.62, -6.178 ], [ 146.577, -6.173 ], [ 146.574, -6.148 ], [ 146.583, -6.14 ], [ 146.574, -6.141 ], [ 146.586, -6.126 ], [ 146.585, -6.103 ], [ 146.568, -6.096 ], [ 146.55, -6.105 ], [ 146.545, -6.057 ], [ 146.53, -6.068 ], [ 146.521, -6.06 ], [ 146.531, -6.033 ], [ 146.502, -6.025 ], [ 146.496, -6.036 ], [ 146.468, -6.028 ], [ 146.47, -5.922 ] ] ] } },
{ "type": "Feature", "properties": { "gml_id": "World_Database_Protected_Areas_Polygons.172", "gid": 172, "wdpaid": 9720.0, "wdpa_pid": "9720", "pa_def": null, "name": "Mojirau", "orig_name": "Mojirau", "desig": "Wildlife Management Area", "desig_eng": "Wildlife Management Area", "desig_type": "National", "iucn_cat": "Not Reported", "int_crit": null, "marine": false, "rep_m_area": 0.0, "gis_m_area": 0.0, "rep_area": 50.79, "gis_area": 53.54, "no_take": "Not Applicable", "no_tk_area": 0.0, "status": "Designated", "status_yr": 1978.0, "gov_type": "Governance by Indigenous Peoples and Local Communities", "own_type": "Communal", "mang_auth": "Not Reported", "mang_plan": "Not Reported", "verif": null, "metadataid": null, "sub_loc": null, "parent_iso": null, "iso3": "PNG" }, "geometry": { "type": "Polygon", "coordinates": [ [ [ 143.946, -3.868 ], [ 143.886, -3.868 ], [ 143.871, -3.826 ], [ 143.934, -3.802 ], [ 143.968, -3.847 ], [ 143.946, -3.868 ] ] ] } },
{ "type": "Feature", "properties": { "gml_id": "World_Database_Protected_Areas_Polygons.175", "gid": 175, "wdpaid": 15781.0, "wdpa_pid": "15781", "pa_def": null, "name": "Ndrolowa (I)", "orig_name": "Ndrolowa (I)", "desig": "Marine Managed Area", "desig_eng": "Marine Managed Area", "desig_type": "National", "iucn_cat": "VI", "int_crit": null, "marine": true, "rep_m_area": 26.94, "gis_m_area": 23.85, "rep_area": 58.5, "gis_area": 60.87, "no_take": "Not Reported", "no_tk_area": 0.0, "status": "Designated", "status_yr": 1985.0, "gov_type": "Governance by Government", "own_type": "Not Reported", "mang_auth": "Not Reported", "mang_plan": "Not Reported", "verif": null, "metadataid": null, "sub_loc": null, "parent_iso": null, "iso3": "PNG" }, "geometry": { "type": "Polygon", "coordinates": [ [ [ 147.25, -2.107 ], [ 147.255, -2.051 ], [ 147.278, -2.04 ], [ 147.329, -2.07 ], [ 147.333, -2.093 ], [ 147.328, -2.105 ], [ 147.267, -2.117 ], [ 147.25, -2.107 ] ] ] } },
{ "type": "Feature", "properties": { "gml_id": "World_Database_Protected_Areas_Polygons.203", "gid": 203, "wdpaid": 555547899.0, "wdpa_pid": "555547899", "pa_def": null, "name": "M'Buke", "orig_name": "M'Buke", "desig": "Locally Managed Marine Area", "desig_eng": "Locally Managed Marine Area", "desig_type": "National", "iucn_cat": "Not Reported", "int_crit": null, "marine": true, "rep_m_area": 1.022, "gis_m_area": 1.03, "rep_area": 1.022, "gis_area": 1.03, "no_take": "All ", "no_tk_area": 1.02, "status": "Designated", "status_yr": 2002.0, "gov_type": "Governance by Indigenous Peoples and Local Communities", "own_type": "Not Reported", "mang_auth": "Not Reported", "mang_plan": "Not Reported", "verif": null, "metadataid": null, "sub_loc": null, "parent_iso": null, "iso3": "PNG" }, "geometry": { "type": "Polygon", "coordinates": [ [ [ 146.827, -2.393 ], [ 146.816, -2.384 ], [ 146.816, -2.37 ], [ 146.827, -2.393 ] ] ] } },
{ "type": "Feature", "properties": { "gml_id": "World_Database_Protected_Areas_Polygons.167", "gid": 167, "wdpaid": 4205.0, "wdpa_pid": "4205", "pa_def": null, "name": "Bagiai", "orig_name": "Bagiai", "desig": "Wildlife Management Area", "desig_eng": "Wildlife Management Area", "desig_type": "National", "iucn_cat": "Not Reported", "int_crit": null, "marine": false, "rep_m_area": 0.0, "gis_m_area": 4.03, "rep_area": 137.6, "gis_area": 184.75, "no_take": "Not Applicable", "no_tk_area": 0.0, "status": "Designated", "status_yr": 1977.0, "gov_type": "Governance by Indigenous Peoples and Local Communities", "own_type": "Communal", "mang_auth": "Not Reported", "mang_plan": "Not Reported", "verif": null, "metadataid": null, "sub_loc": null, "parent_iso": null, "iso3": "PNG" }, "geometry": { "type": "Polygon", "coordinates": [ [ [ 146.062, -4.583 ], [ 146.059, -4.628 ], [ 146.068, -4.65 ], [ 146.057, -4.665 ], [ 146.06, -4.678 ], [ 146.051, -4.681 ], [ 146.053, -4.71 ], [ 146.029, -4.726 ], [ 146.006, -4.694 ], [ 145.978, -4.711 ], [ 145.948, -4.695 ], [ 145.926, -4.666 ], [ 145.934, -4.625 ], [ 145.957, -4.607 ], [ 146.002, -4.608 ], [ 146.026, -4.584 ], [ 146.051, -4.573 ], [ 146.062, -4.583 ] ] ] } },
{ "type": "Feature", "properties": { "gml_id": "World_Database_Protected_Areas_Polygons.204", "gid": 204, "wdpaid": 555547900.0, "wdpa_pid": "555547900", "pa_def": null, "name": "Whal Island", "orig_name": "Whal Island", "desig": "Locally Managed Marine Area", "desig_eng": "Locally Managed Marine Area", "desig_type": "National", "iucn_cat": "Not Reported", "int_crit": null, "marine": true, "rep_m_area": 0.022, "gis_m_area": 0.07, "rep_area": 0.07, "gis_area": 0.07, "no_take": "Part", "no_tk_area": 0.02, "status": "Designated", "status_yr": 1997.0, "gov_type": "Governance by Indigenous Peoples and Local Communities", "own_type": "Not Reported", "mang_auth": "Not Reported", "mang_plan": "Not Reported", "verif": null, "metadataid": null, "sub_loc": null, "parent_iso": null, "iso3": "PNG" }, "geometry": { "type": "Polygon", "coordinates": [ [ [ 146.832, -2.268 ], [ 146.827, -2.266 ], [ 146.824, -2.269 ], [ 146.827, -2.265 ], [ 146.832, -2.268 ] ] ] } },
{ "type": "Feature", "properties": { "gml_id": "World_Database_Protected_Areas_Polygons.182", "gid": 182, "wdpaid": 15894.0, "wdpa_pid": "15894", "pa_def": null, "name": "Lihir Island", "orig_name": "Lihir Island", "desig": "Protected Area", "desig_eng": "Protected Area", "desig_type": "National", "iucn_cat": "Not Reported", "int_crit": null, "marine": false, "rep_m_area": 0.0, "gis_m_area": 3.01, "rep_area": 19.8, "gis_area": 201.65, "no_take": "Not Applicable", "no_tk_area": 0.0, "status": "Designated", "status_yr": 1991.0, "gov_type": "Governance by Indigenous Peoples and Local Communities", "own_type": "Communal", "mang_auth": "Not Reported", "mang_plan": "Not Reported", "verif": null, "metadataid": null, "sub_loc": null, "parent_iso": null, "iso3": "PNG" }, "geometry": { "type": "Polygon", "coordinates": [ [ [ 152.631, -3.033 ], [ 152.639, -3.066 ], [ 152.631, -3.08 ], [ 152.641, -3.088 ], [ 152.634, -3.115 ], [ 152.643, -3.125 ], [ 152.658, -3.119 ], [ 152.662, -3.138 ], [ 152.648, -3.167 ], [ 152.646, -3.211 ], [ 152.637, -3.224 ], [ 152.622, -3.226 ], [ 152.601, -3.2 ], [ 152.59, -3.203 ], [ 152.582, -3.177 ], [ 152.573, -3.182 ], [ 152.571, -3.174 ], [ 152.562, -3.175 ], [ 152.564, -3.162 ], [ 152.551, -3.165 ], [ 152.563, -3.15 ], [ 152.527, -3.112 ], [ 152.52, -3.09 ], [ 152.556, -3.049 ], [ 152.631, -3.033 ] ] ] } },
{ "type": "Feature", "properties": { "gml_id": "World_Database_Protected_Areas_Polygons.196", "gid": 196, "wdpaid": 377712.0, "wdpa_pid": "377712", "pa_def": null, "name": "Hunstein Range", "orig_name": "Hunstein Range", "desig": "Wildlife Management Area", "desig_eng": "Wildlife Management Area", "desig_type": "National", "iucn_cat": "Not Reported", "int_crit": null, "marine": false, "rep_m_area": 0.0, "gis_m_area": 0.0, "rep_area": 2200.0, "gis_area": 2286.81, "no_take": "Not Applicable", "no_tk_area": 0.0, "status": "Designated", "status_yr": 1997.0, "gov_type": "Governance by Indigenous Peoples and Local Communities", "own_type": "Communal", "mang_auth": "Not Reported", "mang_plan": "Not Reported", "verif": null, "metadataid": null, "sub_loc": null, "parent_iso": null, "iso3": "PNG" }, "geometry": { "type": "Polygon", "coordinates": [ [ [ 142.56, -4.273 ], [ 142.569, -4.282 ], [ 142.583, -4.273 ], [ 142.602, -4.277 ], [ 142.632, -4.3 ], [ 142.642, -4.282 ], [ 142.664, -4.303 ], [ 142.695, -4.318 ], [ 142.705, -4.312 ], [ 142.733, -4.336 ], [ 142.744, -4.322 ], [ 142.759, -4.318 ], [ 142.801, -4.325 ], [ 142.811, -4.31 ], [ 142.837, -4.302 ], [ 142.84, -4.293 ], [ 142.827, -4.276 ], [ 142.896, -4.291 ], [ 142.914, -4.316 ], [ 142.916, -4.335 ], [ 142.908, -4.358 ], [ 142.884, -4.361 ], [ 142.887, -4.421 ], [ 142.895, -4.434 ], [ 142.914, -4.423 ], [ 142.939, -4.429 ], [ 142.959, -4.417 ], [ 143.028, -4.507 ], [ 143.017, -4.511 ], [ 143.014, -4.54 ], [ 143.011, -4.535 ], [ 142.982, -4.545 ], [ 142.977, -4.554 ], [ 142.971, -4.54 ], [ 142.964, -4.556 ], [ 142.955, -4.551 ], [ 142.954, -4.566 ], [ 142.941, -4.539 ], [ 142.937, -4.55 ], [ 142.928, -4.54 ], [ 142.931, -4.547 ], [ 142.915, -4.556 ], [ 142.924, -4.554 ], [ 142.927, -4.563 ], [ 142.91, -4.566 ], [ 142.922, -4.574 ], [ 142.913, -4.577 ], [ 142.917, -4.605 ], [ 142.905, -4.608 ], [ 142.878, -4.642 ], [ 142.869, -4.659 ], [ 142.873, -4.667 ], [ 142.859, -4.66 ], [ 142.864, -4.672 ], [ 142.852, -4.668 ], [ 142.827, -4.707 ], [ 142.671, -4.797 ], [ 142.61, -4.761 ], [ 142.579, -4.757 ], [ 142.577, -4.738 ], [ 142.568, -4.741 ], [ 142.544, -4.73 ], [ 142.534, -4.708 ], [ 142.552, -4.651 ], [ 142.545, -4.642 ], [ 142.553, -4.628 ], [ 142.56, -4.632 ], [ 142.566, -4.621 ], [ 142.582, -4.624 ], [ 142.585, -4.61 ], [ 142.597, -4.606 ], [ 142.602, -4.573 ], [ 142.588, -4.576 ], [ 142.587, -4.565 ], [ 142.565, -4.565 ], [ 142.564, -4.556 ], [ 142.552, -4.565 ], [ 142.552, -4.548 ], [ 142.536, -4.541 ], [ 142.529, -4.551 ], [ 142.514, -4.55 ], [ 142.517, -4.533 ], [ 142.509, -4.537 ], [ 142.509, -4.525 ], [ 142.499, -4.521 ], [ 142.509, -4.516 ], [ 142.5, -4.512 ], [ 142.501, -4.503 ], [ 142.484, -4.509 ], [ 142.483, -4.469 ], [ 142.469, -4.468 ], [ 142.474, -4.46 ], [ 142.461, -4.447 ], [ 142.464, -4.424 ], [ 142.454, -4.42 ], [ 142.462, -4.413 ], [ 142.452, -4.4 ], [ 142.446, -4.405 ], [ 142.455, -4.395 ], [ 142.441, -4.395 ], [ 142.439, -4.385 ], [ 142.424, -4.378 ], [ 142.433, -4.367 ], [ 142.417, -4.348 ], [ 142.407, -4.347 ], [ 142.424, -4.345 ], [ 142.429, -4.329 ], [ 142.443, -4.341 ], [ 142.46, -4.327 ], [ 142.465, -4.334 ], [ 142.474, -4.326 ], [ 142.498, -4.337 ], [ 142.5, -4.286 ], [ 142.518, -4.276 ], [ 142.56, -4.273 ] ] ] } }
]
}
