{
  "type": "FeatureCollection",
  "name": "Sample Species Richness — Montane PNG Transects",
  "description": "Fictional but ecologically realistic species-richness survey points across two montane transects in Papua New Guinea. Use this file to explore GeoSpaX spatial-analysis tools (Gi*, LISA, Global Moran's I, Moran Scatterplot, IDW, DBSCAN, etc.).",
  "features": [
    {"type":"Feature","geometry":{"type":"Point","coordinates":[146.021,-5.831]},"properties":{"site":"YUS-01","transect":"YUS","elevation_m":210,"species_richness":28,"tree_cover_pct":62,"rainfall_mm":2340,"surveyed":"2023-03-14"}},
    {"type":"Feature","geometry":{"type":"Point","coordinates":[146.038,-5.819]},"properties":{"site":"YUS-02","transect":"YUS","elevation_m":380,"species_richness":34,"tree_cover_pct":71,"rainfall_mm":2480,"surveyed":"2023-03-15"}},
    {"type":"Feature","geometry":{"type":"Point","coordinates":[146.052,-5.804]},"properties":{"site":"YUS-03","transect":"YUS","elevation_m":560,"species_richness":42,"tree_cover_pct":83,"rainfall_mm":2610,"surveyed":"2023-03-16"}},
    {"type":"Feature","geometry":{"type":"Point","coordinates":[146.067,-5.792]},"properties":{"site":"YUS-04","transect":"YUS","elevation_m":740,"species_richness":51,"tree_cover_pct":89,"rainfall_mm":2780,"surveyed":"2023-03-17"}},
    {"type":"Feature","geometry":{"type":"Point","coordinates":[146.079,-5.778]},"properties":{"site":"YUS-05","transect":"YUS","elevation_m":940,"species_richness":63,"tree_cover_pct":92,"rainfall_mm":2920,"surveyed":"2023-03-18"}},
    {"type":"Feature","geometry":{"type":"Point","coordinates":[146.091,-5.763]},"properties":{"site":"YUS-06","transect":"YUS","elevation_m":1140,"species_richness":74,"tree_cover_pct":94,"rainfall_mm":3050,"surveyed":"2023-03-19"}},
    {"type":"Feature","geometry":{"type":"Point","coordinates":[146.104,-5.749]},"properties":{"site":"YUS-07","transect":"YUS","elevation_m":1360,"species_richness":82,"tree_cover_pct":95,"rainfall_mm":3100,"surveyed":"2023-03-20"}},
    {"type":"Feature","geometry":{"type":"Point","coordinates":[146.117,-5.736]},"properties":{"site":"YUS-08","transect":"YUS","elevation_m":1590,"species_richness":88,"tree_cover_pct":93,"rainfall_mm":3080,"surveyed":"2023-03-21"}},
    {"type":"Feature","geometry":{"type":"Point","coordinates":[146.129,-5.721]},"properties":{"site":"YUS-09","transect":"YUS","elevation_m":1820,"species_richness":91,"tree_cover_pct":91,"rainfall_mm":3010,"surveyed":"2023-03-22"}},
    {"type":"Feature","geometry":{"type":"Point","coordinates":[146.142,-5.707]},"properties":{"site":"YUS-10","transect":"YUS","elevation_m":2060,"species_richness":87,"tree_cover_pct":88,"rainfall_mm":2950,"surveyed":"2023-03-23"}},
    {"type":"Feature","geometry":{"type":"Point","coordinates":[146.155,-5.694]},"properties":{"site":"YUS-11","transect":"YUS","elevation_m":2290,"species_richness":79,"tree_cover_pct":82,"rainfall_mm":2830,"surveyed":"2023-03-24"}},
    {"type":"Feature","geometry":{"type":"Point","coordinates":[146.167,-5.681]},"properties":{"site":"YUS-12","transect":"YUS","elevation_m":2530,"species_richness":68,"tree_cover_pct":71,"rainfall_mm":2640,"surveyed":"2023-03-25"}},
    {"type":"Feature","geometry":{"type":"Point","coordinates":[146.178,-5.668]},"properties":{"site":"YUS-13","transect":"YUS","elevation_m":2760,"species_richness":52,"tree_cover_pct":56,"rainfall_mm":2410,"surveyed":"2023-03-26"}},
    {"type":"Feature","geometry":{"type":"Point","coordinates":[146.188,-5.655]},"properties":{"site":"YUS-14","transect":"YUS","elevation_m":2980,"species_richness":37,"tree_cover_pct":38,"rainfall_mm":2180,"surveyed":"2023-03-27"}},
    {"type":"Feature","geometry":{"type":"Point","coordinates":[146.197,-5.644]},"properties":{"site":"YUS-15","transect":"YUS","elevation_m":3190,"species_richness":22,"tree_cover_pct":19,"rainfall_mm":1920,"surveyed":"2023-03-28"}},
    {"type":"Feature","geometry":{"type":"Point","coordinates":[145.031,-5.701]},"properties":{"site":"WIL-01","transect":"Wilhelm","elevation_m":2620,"species_richness":44,"tree_cover_pct":58,"rainfall_mm":2210,"surveyed":"2023-04-03"}},
    {"type":"Feature","geometry":{"type":"Point","coordinates":[145.044,-5.718]},"properties":{"site":"WIL-02","transect":"Wilhelm","elevation_m":2840,"species_richness":38,"tree_cover_pct":49,"rainfall_mm":2080,"surveyed":"2023-04-04"}},
    {"type":"Feature","geometry":{"type":"Point","coordinates":[145.059,-5.732]},"properties":{"site":"WIL-03","transect":"Wilhelm","elevation_m":3060,"species_richness":31,"tree_cover_pct":36,"rainfall_mm":1940,"surveyed":"2023-04-05"}},
    {"type":"Feature","geometry":{"type":"Point","coordinates":[145.073,-5.748]},"properties":{"site":"WIL-04","transect":"Wilhelm","elevation_m":3280,"species_richness":24,"tree_cover_pct":22,"rainfall_mm":1780,"surveyed":"2023-04-06"}},
    {"type":"Feature","geometry":{"type":"Point","coordinates":[145.086,-5.763]},"properties":{"site":"WIL-05","transect":"Wilhelm","elevation_m":3510,"species_richness":17,"tree_cover_pct":11,"rainfall_mm":1610,"surveyed":"2023-04-07"}},
    {"type":"Feature","geometry":{"type":"Point","coordinates":[145.099,-5.777]},"properties":{"site":"WIL-06","transect":"Wilhelm","elevation_m":3760,"species_richness":11,"tree_cover_pct":5,"rainfall_mm":1430,"surveyed":"2023-04-08"}},
    {"type":"Feature","geometry":{"type":"Point","coordinates":[145.112,-5.791]},"properties":{"site":"WIL-07","transect":"Wilhelm","elevation_m":4020,"species_richness":6,"tree_cover_pct":2,"rainfall_mm":1240,"surveyed":"2023-04-09"}},
    {"type":"Feature","geometry":{"type":"Point","coordinates":[145.124,-5.804]},"properties":{"site":"WIL-08","transect":"Wilhelm","elevation_m":4260,"species_richness":3,"tree_cover_pct":0,"rainfall_mm":1070,"surveyed":"2023-04-10"}},
    {"type":"Feature","geometry":{"type":"Point","coordinates":[145.136,-5.816]},"properties":{"site":"WIL-09","transect":"Wilhelm","elevation_m":4509,"species_richness":1,"tree_cover_pct":0,"rainfall_mm":940,"surveyed":"2023-04-11"}},
    {"type":"Feature","geometry":{"type":"Point","coordinates":[146.090,-5.760]},"properties":{"site":"YUS-06A","transect":"YUS","elevation_m":1100,"species_richness":71,"tree_cover_pct":93,"rainfall_mm":3020,"surveyed":"2023-05-02"}},
    {"type":"Feature","geometry":{"type":"Point","coordinates":[146.105,-5.750]},"properties":{"site":"YUS-07A","transect":"YUS","elevation_m":1320,"species_richness":80,"tree_cover_pct":95,"rainfall_mm":3090,"surveyed":"2023-05-03"}},
    {"type":"Feature","geometry":{"type":"Point","coordinates":[146.118,-5.738]},"properties":{"site":"YUS-08A","transect":"YUS","elevation_m":1560,"species_richness":86,"tree_cover_pct":92,"rainfall_mm":3060,"surveyed":"2023-05-04"}},
    {"type":"Feature","geometry":{"type":"Point","coordinates":[146.131,-5.724]},"properties":{"site":"YUS-09A","transect":"YUS","elevation_m":1790,"species_richness":89,"tree_cover_pct":90,"rainfall_mm":2990,"surveyed":"2023-05-05"}},
    {"type":"Feature","geometry":{"type":"Point","coordinates":[146.068,-5.798]},"properties":{"site":"YUS-04A","transect":"YUS","elevation_m":700,"species_richness":48,"tree_cover_pct":87,"rainfall_mm":2740,"surveyed":"2023-05-06"}},
    {"type":"Feature","geometry":{"type":"Point","coordinates":[146.053,-5.811]},"properties":{"site":"YUS-03A","transect":"YUS","elevation_m":520,"species_richness":39,"tree_cover_pct":80,"rainfall_mm":2570,"surveyed":"2023-05-07"}},
    {"type":"Feature","geometry":{"type":"Point","coordinates":[146.145,-5.709]},"properties":{"site":"YUS-10A","transect":"YUS","elevation_m":2020,"species_richness":85,"tree_cover_pct":87,"rainfall_mm":2930,"surveyed":"2023-05-08"}},
    {"type":"Feature","geometry":{"type":"Point","coordinates":[146.158,-5.697]},"properties":{"site":"YUS-11A","transect":"YUS","elevation_m":2250,"species_richness":76,"tree_cover_pct":80,"rainfall_mm":2800,"surveyed":"2023-05-09"}},
    {"type":"Feature","geometry":{"type":"Point","coordinates":[145.048,-5.722]},"properties":{"site":"WIL-02A","transect":"Wilhelm","elevation_m":2800,"species_richness":35,"tree_cover_pct":46,"rainfall_mm":2050,"surveyed":"2023-05-14"}},
    {"type":"Feature","geometry":{"type":"Point","coordinates":[145.062,-5.735]},"properties":{"site":"WIL-03A","transect":"Wilhelm","elevation_m":3020,"species_richness":28,"tree_cover_pct":33,"rainfall_mm":1910,"surveyed":"2023-05-15"}},
    {"type":"Feature","geometry":{"type":"Point","coordinates":[145.074,-5.751]},"properties":{"site":"WIL-04A","transect":"Wilhelm","elevation_m":3240,"species_richness":21,"tree_cover_pct":20,"rainfall_mm":1750,"surveyed":"2023-05-16"}},
    {"type":"Feature","geometry":{"type":"Point","coordinates":[146.020,-5.838]},"properties":{"site":"YUS-00","transect":"YUS","elevation_m":140,"species_richness":21,"tree_cover_pct":44,"rainfall_mm":2240,"surveyed":"2023-05-20"}},
    {"type":"Feature","geometry":{"type":"Point","coordinates":[146.007,-5.848]},"properties":{"site":"YUS-L1","transect":"YUS","elevation_m":80,"species_richness":16,"tree_cover_pct":28,"rainfall_mm":2180,"surveyed":"2023-05-21"}},
    {"type":"Feature","geometry":{"type":"Point","coordinates":[145.994,-5.858]},"properties":{"site":"YUS-L2","transect":"YUS","elevation_m":50,"species_richness":14,"tree_cover_pct":21,"rainfall_mm":2150,"surveyed":"2023-05-22"}},
    {"type":"Feature","geometry":{"type":"Point","coordinates":[146.170,-5.682]},"properties":{"site":"YUS-12A","transect":"YUS","elevation_m":2490,"species_richness":64,"tree_cover_pct":68,"rainfall_mm":2590,"surveyed":"2023-05-23"}},
    {"type":"Feature","geometry":{"type":"Point","coordinates":[146.181,-5.670]},"properties":{"site":"YUS-13A","transect":"YUS","elevation_m":2720,"species_richness":48,"tree_cover_pct":53,"rainfall_mm":2370,"surveyed":"2023-05-24"}},
    {"type":"Feature","geometry":{"type":"Point","coordinates":[145.100,-5.778]},"properties":{"site":"WIL-05A","transect":"Wilhelm","elevation_m":3700,"species_richness":13,"tree_cover_pct":7,"rainfall_mm":1490,"surveyed":"2023-05-28"}},
    {"type":"Feature","geometry":{"type":"Point","coordinates":[145.087,-5.766]},"properties":{"site":"WIL-05B","transect":"Wilhelm","elevation_m":3550,"species_richness":15,"tree_cover_pct":10,"rainfall_mm":1570,"surveyed":"2023-05-29"}}
  ]
}
